Station ID,Name,Latitude,Longitude,Number of Bikes Available,Station ID.1,Name.1,Category,LatitudeB,LongitudeB,Distance
hub_435,Gore Park,43.25631685939874,-79.86866354942322,7,hub_435,Club Absinthe,Night Club,43.256943,-79.867659,0.10707660994904324
hub_435,Gore Park,43.25631685939874,-79.86866354942322,7,hub_435,Hamilton Club,Night Club,43.255183,-79.869448,0.14117991833826518
hub_435,Gore Park,43.25631685939874,-79.86866354942322,7,hub_435,K Point Karaoke & Bar,Arts and Entertainment,43.258247,-79.868158,0.2184917163508438
hub_435,Gore Park,43.25631685939874,-79.86866354942322,7,hub_435,LOFT Lounge,Night Club,43.257617,-79.871251,0.2545698558070632
hub_435,Gore Park,43.25631685939874,-79.86866354942322,7,hub_435,Mighty Mikes Pub & Billiards,Pool Hall,43.254333,-79.865966,0.3104614864071106
hub_435,Gore Park,43.25631685939874,-79.86866354942322,7,hub_435,Tailgate Charlie's,Sports Bar,43.253962,-79.867155,0.2889460547382689
hub_435,Gore Park,43.25631685939874,-79.86866354942322,7,hub_435,The French,Wine Bar,43.257347,-79.867496,0.14852841518676735
hub_435,Gore Park,43.25631685939874,-79.86866354942322,7,hub_435,Undefined,Bar,43.257392,-79.867642,0.14538235179441297
hub_435,Gore Park,43.25631685939874,-79.86866354942322,7,hub_435,Undergound,Night Club,43.256647,-79.864966,0.3016787983269385
hub_435,Gore Park,43.25631685939874,-79.86866354942322,7,hub_435,Zen Lounge,Lounge,43.253962,-79.867155,0.2889460547382689
hub_436,James North at Mulberry,43.26181945279216,-79.86674308776855,2,hub_436,B Me,Bar,43.259542,-79.868052,0.27452750116701924
hub_436,James North at Mulberry,43.26181945279216,-79.86674308776855,2,hub_436,Bar Sazerac,Night Club,43.263456,-79.865886,0.19476094910984412
hub_436,James North at Mulberry,43.26181945279216,-79.86674308776855,2,hub_436,Happy Hourz Pub,Pub,43.259965,-79.869097,0.2808090700068281
hub_436,James North at Mulberry,43.26181945279216,-79.86674308776855,2,hub_436,L'étranger on James,Arts and Entertainment,43.259535,-79.868144,0.2781994536402847
hub_436,James North at Mulberry,43.26181945279216,-79.86674308776855,2,hub_436,Merit Brewing,Bar,43.25949,-79.867997,0.2782140527675466
hub_436,James North at Mulberry,43.26181945279216,-79.86674308776855,2,hub_436,Nobody's Perfect Bar and Grill,Karaoke Bar,43.263367,-79.863413,0.3198803841505807
hub_436,James North at Mulberry,43.26181945279216,-79.86674308776855,2,hub_436,Saint James Espresso Bar & Eatery,Bar,43.260862,-79.866884,0.10707362169494394
hub_436,James North at Mulberry,43.26181945279216,-79.86674308776855,2,hub_436,The Brain,Bar,43.261915,-79.867016,0.024520408785807888
hub_436,James North at Mulberry,43.26181945279216,-79.86674308776855,2,hub_436,The Green Smoothie Bar,Bar,43.262589,-79.866249,0.09446099215363682
hub_436,James North at Mulberry,43.26181945279216,-79.86674308776855,2,hub_436,Zyla's Music and Menu,Music Venue,43.264002,-79.86607,0.2487329581924456
hub_527,Seedworks,43.25911119199103,-79.86361294984816,2,hub_527,B Me,Bar,43.259542,-79.868052,0.3626465797896283
hub_527,Seedworks,43.25911119199103,-79.86361294984816,2,hub_527,Club Absinthe,Night Club,43.256943,-79.867659,0.4067930249314688
hub_527,Seedworks,43.25911119199103,-79.86361294984816,2,hub_527,K Point Karaoke & Bar,Arts and Entertainment,43.258247,-79.868158,0.3803939174559809
hub_527,Seedworks,43.25911119199103,-79.86361294984816,2,hub_527,L'étranger on James,Arts and Entertainment,43.259535,-79.868144,0.36993271041959375
hub_527,Seedworks,43.25911119199103,-79.86361294984816,2,hub_527,Merit Brewing,Bar,43.25949,-79.867997,0.35750513525517286
hub_527,Seedworks,43.25911119199103,-79.86361294984816,2,hub_527,Saint James Espresso Bar & Eatery,Bar,43.260862,-79.866884,0.32873016312891695
hub_527,Seedworks,43.25911119199103,-79.86361294984816,2,hub_527,The Brain,Bar,43.261915,-79.867016,0.4160991929923643
hub_527,Seedworks,43.25911119199103,-79.86361294984816,2,hub_527,The French,Wine Bar,43.257347,-79.867496,0.37062285550203156
hub_527,Seedworks,43.25911119199103,-79.86361294984816,2,hub_527,Undefined,Bar,43.257392,-79.867642,0.3781513377601139
hub_527,Seedworks,43.25911119199103,-79.86361294984816,2,hub_527,Undergound,Night Club,43.256647,-79.864966,0.2951014763572804
hub_530,Cootes at York and King,43.26558132306987,-79.94965553283691,11,hub_530,Bar Or M,Bar,43.264645,-79.956751,0.5838849409435242
hub_530,Cootes at York and King,43.26558132306987,-79.94965553283691,11,hub_530,Collins Brewhouse,Pub,43.266392,-79.955149,0.4538476475902542
hub_530,Cootes at York and King,43.26558132306987,-79.94965553283691,11,hub_530,Il Fiasco Cafe & Wine Bar,Whisky Bar,43.265793,-79.954212,0.36968853659211365
hub_530,Cootes at York and King,43.26558132306987,-79.94965553283691,11,hub_530,Shawn & Ed Brewing Co,Arts and Entertainment,43.265744,-79.957728,0.653880550358889
hub_530,Cootes at York and King,43.26558132306987,-79.94965553283691,11,hub_530,Side Lounge,Bar,43.266479,-79.954746,0.42408856333280404
hub_530,Cootes at York and King,43.26558132306987,-79.94965553283691,11,hub_530,Winchester Arms,Pub,43.266652,-79.958997,0.765688234926165
hub_535,Osler at Grant,43.2595496051254,-79.9426434441838,1,hub_535,The Wee Dram,Pub,43.252487,-79.939,0.8389253189664257
hub_536,Main at Whitney,43.25205234935895,-79.93979036808014,6,hub_536,The Wee Dram,Pub,43.252487,-79.939,0.08020733580317017
hub_537,Osler at Main,43.2572539435115,-79.9342255404988,8,hub_537,The Wee Dram,Pub,43.252487,-79.939,0.6561006015968653
hub_538,Whitney at Lower Horning,43.2518522355378,-79.9354198942367,10,hub_538,The Wee Dram,Pub,43.252487,-79.939,0.29841400679565594
hub_539,Sanders at Binkley,43.25875372772543,-79.92979913949966,10,hub_539,Emerson 109,Bar,43.25446,-79.92079,0.8719167303972493
hub_539,Sanders at Binkley,43.25875372772543,-79.92979913949966,10,hub_539,Phoenix Bar & Grill,Bar,43.262878,-79.921158,0.836622114436105
hub_539,Sanders at Binkley,43.25875372772543,-79.92979913949966,10,hub_539,TwelvEighty Bar & Grill,Lounge,43.258546,-79.919307,0.8499637333180124
hub_539,Sanders at Binkley,43.25875372772543,-79.92979913949966,10,hub_539,Williams Coffee Pub,Bar,43.257365,-79.917947,0.9721342583409553
hub_540,Sanders at Hollywood,43.2599031676959,-79.9264810904732,15,hub_540,Emerson 109,Bar,43.25446,-79.92079,0.7607465201396274
hub_540,Sanders at Hollywood,43.2599031676959,-79.9264810904732,15,hub_540,Phoenix Bar & Grill,Bar,43.262878,-79.921158,0.5433390181527629
hub_540,Sanders at Hollywood,43.2599031676959,-79.9264810904732,15,hub_540,TwelvEighty Bar & Grill,Lounge,43.258546,-79.919307,0.6002304863135068
hub_540,Sanders at Hollywood,43.2599031676959,-79.9264810904732,15,hub_540,Williams Coffee Pub,Bar,43.257365,-79.917947,0.7464964756735207
hub_541,King at Cline,43.2605367847852,-79.9092948353051,7,hub_541,Kookaburra Restaurant,Bar,43.258372,-79.910003,0.24744973860796504
hub_541,King at Cline,43.2605367847852,-79.9092948353051,7,hub_541,Phoenix Bar & Grill,Bar,43.262878,-79.921158,0.995276878325665
hub_541,King at Cline,43.2605367847852,-79.9092948353051,7,hub_541,Snooty Fox,Pub,43.261816,-79.905256,0.3566433797952199
hub_541,King at Cline,43.2605367847852,-79.9092948353051,7,hub_541,TwelvEighty Bar & Grill,Lounge,43.258546,-79.919307,0.8404463900807883
hub_541,King at Cline,43.2605367847852,-79.9092948353051,7,hub_541,Williams Coffee Pub,Bar,43.257365,-79.917947,0.7844056767174363
hub_542,Sterling at Whitton,43.2622271626907,-79.9133658840373,9,hub_542,Kookaburra Restaurant,Bar,43.258372,-79.910003,0.5078571079265742
hub_542,Sterling at Whitton,43.2622271626907,-79.9133658840373,9,hub_542,Phoenix Bar & Grill,Bar,43.262878,-79.921158,0.63509916137536
hub_542,Sterling at Whitton,43.2622271626907,-79.9133658840373,9,hub_542,Snooty Fox,Pub,43.261816,-79.905256,0.6582887862083748
hub_542,Sterling at Whitton,43.2622271626907,-79.9133658840373,9,hub_542,TwelvEighty Bar & Grill,Lounge,43.258546,-79.919307,0.6316656047198681
hub_542,Sterling at Whitton,43.2622271626907,-79.9133658840373,9,hub_542,Williams Coffee Pub,Bar,43.257365,-79.917947,0.6556820556165452
hub_543,Sterling at Haddon,43.26202552179778,-79.91026729345322,8,hub_543,Kookaburra Restaurant,Bar,43.258372,-79.910003,0.40681643383983407
hub_543,Sterling at Haddon,43.26202552179778,-79.91026729345322,8,hub_543,Phoenix Bar & Grill,Bar,43.262878,-79.921158,0.8869504429208483
hub_543,Sterling at Haddon,43.26202552179778,-79.91026729345322,8,hub_543,Snooty Fox,Pub,43.261816,-79.905256,0.4064592561365562
hub_543,Sterling at Haddon,43.26202552179778,-79.91026729345322,8,hub_543,TwelvEighty Bar & Grill,Lounge,43.258546,-79.919307,0.8279722881271813
hub_543,Sterling at Haddon,43.26202552179778,-79.91026729345322,8,hub_543,Williams Coffee Pub,Bar,43.257365,-79.917947,0.8095090351438436
hub_544,Westdale Library,43.2627159943772,-79.90359663963316,4,hub_544,Kookaburra Restaurant,Bar,43.258372,-79.910003,0.7088293730969367
hub_544,Westdale Library,43.2627159943772,-79.90359663963316,4,hub_544,Snooty Fox,Pub,43.261816,-79.905256,0.1675389787504483
hub_545,Emerson at Whitney,43.2521423210113,-79.9222158171462,4,hub_545,Emerson 109,Bar,43.25446,-79.92079,0.28240119940009084
hub_545,Emerson at Whitney,43.2521423210113,-79.9222158171462,4,hub_545,TwelvEighty Bar & Grill,Lounge,43.258546,-79.919307,0.7500112054449157
hub_545,Emerson at Whitney,43.2521423210113,-79.9222158171462,4,hub_545,Williams Coffee Pub,Bar,43.257365,-79.917947,0.6758466086189149
hub_546,Rail Trail at Emerson,43.2546745875963,-79.9208028150996,3,hub_546,Emerson 109,Bar,43.25446,-79.92079,0.023883611514712463
hub_546,Rail Trail at Emerson,43.2546745875963,-79.9208028150996,3,hub_546,Kookaburra Restaurant,Bar,43.258372,-79.910003,0.9664101703629595
hub_546,Rail Trail at Emerson,43.2546745875963,-79.9208028150996,3,hub_546,Phoenix Bar & Grill,Bar,43.262878,-79.921158,0.9126311987826066
hub_546,Rail Trail at Emerson,43.2546745875963,-79.9208028150996,3,hub_546,TwelvEighty Bar & Grill,Lounge,43.258546,-79.919307,0.44720001549896476
hub_546,Rail Trail at Emerson,43.2546745875963,-79.9208028150996,3,hub_546,Williams Coffee Pub,Bar,43.257365,-79.917947,0.37813223658038064
hub_547,Westdale Village,43.26201477888108,-79.90508794784544,0,hub_547,Kookaburra Restaurant,Bar,43.258372,-79.910003,0.5678764662251268
hub_547,Westdale Village,43.26201477888108,-79.90508794784544,0,hub_547,Snooty Fox,Pub,43.261816,-79.905256,0.02595633453692266
hub_548,Rail Trail at Stroud,43.2535916384655,-79.9166152756283,11,hub_548,Emerson 109,Bar,43.25446,-79.92079,0.3516112653381674
hub_548,Rail Trail at Stroud,43.2535916384655,-79.9166152756283,11,hub_548,Kookaburra Restaurant,Bar,43.258372,-79.910003,0.7545129474140395
hub_548,Rail Trail at Stroud,43.2535916384655,-79.9166152756283,11,hub_548,TwelvEighty Bar & Grill,Lounge,43.258546,-79.919307,0.5924590719692852
hub_548,Rail Trail at Stroud,43.2535916384655,-79.9166152756283,11,hub_548,Williams Coffee Pub,Bar,43.257365,-79.917947,0.4332175946625517
hub_549,Main at Columbia College,43.2585671813327,-79.90785866975784,2,hub_549,Kookaburra Restaurant,Bar,43.258372,-79.910003,0.1749986531494073
hub_549,Main at Columbia College,43.2585671813327,-79.90785866975784,2,hub_549,Snooty Fox,Pub,43.261816,-79.905256,0.41823681732270074
hub_549,Main at Columbia College,43.2585671813327,-79.90785866975784,2,hub_549,TwelvEighty Bar & Grill,Lounge,43.258546,-79.919307,0.9270862275394947
hub_549,Main at Columbia College,43.2585671813327,-79.90785866975784,2,hub_549,Williams Coffee Pub,Bar,43.257365,-79.917947,0.827822958979434
hub_550,Longwood at King,43.2630174571678,-79.9009418422827,6,hub_550,Kookaburra Restaurant,Bar,43.258372,-79.910003,0.8973330476427973
hub_550,Longwood at King,43.2630174571678,-79.9009418422827,6,hub_550,Snooty Fox,Pub,43.261816,-79.905256,0.37401134078500786
hub_551,Longwood at Edgevale,43.2662112220324,-79.8993094512,11,hub_551,Snooty Fox,Pub,43.261816,-79.905256,0.6860776297337843
hub_553,Main at Longwood,43.25960441109783,-79.90210264921188,4,hub_553,Kookaburra Restaurant,Bar,43.258372,-79.910003,0.6542763157089737
hub_553,Main at Longwood,43.25960441109783,-79.90210264921188,4,hub_553,Snooty Fox,Pub,43.261816,-79.905256,0.35451137394714083
hub_554,Macklin at King,43.2621672804245,-79.8964982026467,4,hub_554,Snooty Fox,Pub,43.261816,-79.905256,0.7102393796936329
hub_555,McMaster Innovation Park,43.25656885270854,-79.9011692404747,4,hub_555,Kookaburra Restaurant,Bar,43.258372,-79.910003,0.7429353112193029
hub_555,McMaster Innovation Park,43.25656885270854,-79.9011692404747,4,hub_555,Ray's Place,Pub,43.252556,-79.891906,0.8728567574885354
hub_555,McMaster Innovation Park,43.25656885270854,-79.9011692404747,4,hub_555,Snooty Fox,Pub,43.261816,-79.905256,0.6707781396234761
hub_556,Dundurn Stairs,43.2465214141618,-79.8947787566411,2,hub_556,Ray's Place,Pub,43.252556,-79.891906,0.7102089383465701
hub_557,Dundurn at Aberdeen,43.251458458949,-79.89265590906143,5,hub_557,Ray's Place,Pub,43.252556,-79.891906,0.13631809744301318
hub_557,Dundurn at Aberdeen,43.251458458949,-79.89265590906143,5,hub_557,West Town Bar & Grill,Bar,43.254502,-79.886256,0.6190139987898222
hub_558,Dundurn St S,43.2548127612063,-79.8909067737901,9,hub_558,Mark's Chinese Food & Tavern,Bar,43.260901,-79.883074,0.9277093562193752
hub_558,Dundurn St S,43.2548127612063,-79.8909067737901,9,hub_558,Ray's Place,Pub,43.252556,-79.891906,0.2636659065483001
hub_558,Dundurn St S,43.2548127612063,-79.8909067737901,9,hub_558,West Town Bar & Grill,Bar,43.254502,-79.886256,0.3782245489801868
hub_559,Main at Dundurn,43.25966301112219,-79.8892092704773,2,hub_559,Absinthe Lounge,Bar,43.258547,-79.87878,0.8536206784836943
hub_559,Main at Dundurn,43.25966301112219,-79.8892092704773,2,hub_559,Arcade,Arcade,43.258171,-79.878578,0.8767525570830439
hub_559,Main at Dundurn,43.25966301112219,-79.8892092704773,2,hub_559,Doors Pub & Pizzeria,Pub,43.257353,-79.8783,0.9200153107889012
hub_559,Main at Dundurn,43.25966301112219,-79.8892092704773,2,hub_559,Mark's Chinese Food & Tavern,Bar,43.260901,-79.883074,0.5155372220841721
hub_559,Main at Dundurn,43.25966301112219,-79.8892092704773,2,hub_559,Moodys,Bar,43.258164,-79.878669,0.8696665880598231
hub_559,Main at Dundurn,43.25966301112219,-79.8892092704773,2,hub_559,Ray's Place,Pub,43.252556,-79.891906,0.8198843986521966
hub_559,Main at Dundurn,43.25966301112219,-79.8892092704773,2,hub_559,Side Bar,Lounge,43.258331,-79.877956,0.9232388783363471
hub_559,Main at Dundurn,43.25966301112219,-79.8892092704773,2,hub_559,The Strathcona,Wine Bar,43.25959,-79.878308,0.8828042761844945
hub_559,Main at Dundurn,43.25966301112219,-79.8892092704773,2,hub_559,Viva Night Club,Night Club,43.25826,-79.878871,0.8515970843761322
hub_559,Main at Dundurn,43.25966301112219,-79.8892092704773,2,hub_559,West Town Bar & Grill,Bar,43.254502,-79.886256,0.6217187641968267
hub_560,King at Dundurn,43.26240933566922,-79.88798081874847,7,hub_560,Absinthe Lounge,Bar,43.258547,-79.87878,0.8599743358750142
hub_560,King at Dundurn,43.26240933566922,-79.88798081874847,7,hub_560,Arcade,Arcade,43.258171,-79.878578,0.8954670581539413
hub_560,King at Dundurn,43.26240933566922,-79.88798081874847,7,hub_560,Mark's Chinese Food & Tavern,Bar,43.260901,-79.883074,0.4312808410752961
hub_560,King at Dundurn,43.26240933566922,-79.88798081874847,7,hub_560,Moodys,Bar,43.258164,-79.878669,0.8896225055289785
hub_560,King at Dundurn,43.26240933566922,-79.88798081874847,7,hub_560,Side Bar,Lounge,43.258331,-79.877956,0.9298632697541352
hub_560,King at Dundurn,43.26240933566922,-79.88798081874847,7,hub_560,Stonewalls,Lounge,43.263101,-79.878485,0.7727530663079529
hub_560,King at Dundurn,43.26240933566922,-79.88798081874847,7,hub_560,The Strathcona,Wine Bar,43.25959,-79.878308,0.8436785701436645
hub_560,King at Dundurn,43.26240933566922,-79.88798081874847,7,hub_560,Tonic Lounge,Night Club,43.262826,-79.877697,0.8340136870319271
hub_560,King at Dundurn,43.26240933566922,-79.88798081874847,7,hub_560,Viva Night Club,Night Club,43.25826,-79.878871,0.8700931346061482
hub_560,King at Dundurn,43.26240933566922,-79.88798081874847,7,hub_560,West Town Bar & Grill,Bar,43.254502,-79.886256,0.8902806972406166
hub_562,Charlton at Locke,43.25332704523968,-79.886634349823,8,hub_562,Absinthe Lounge,Bar,43.258547,-79.87878,0.8610969836816366
hub_562,Charlton at Locke,43.25332704523968,-79.886634349823,8,hub_562,Arcade,Arcade,43.258171,-79.878578,0.8460388900689738
hub_562,Charlton at Locke,43.25332704523968,-79.886634349823,8,hub_562,Bourbon & Brass Speakeasy,Music Venue,43.258051,-79.877955,0.877477109671395
hub_562,Charlton at Locke,43.25332704523968,-79.886634349823,8,hub_562,Doors Pub & Pizzeria,Pub,43.257353,-79.8783,0.8099144237962083
hub_562,Charlton at Locke,43.25332704523968,-79.886634349823,8,hub_562,Moodys,Bar,43.258164,-79.878669,0.8398702811611848
hub_562,Charlton at Locke,43.25332704523968,-79.886634349823,8,hub_562,Ray's Place,Pub,43.252556,-79.891906,0.43546001736427276
hub_562,Charlton at Locke,43.25332704523968,-79.886634349823,8,hub_562,Ten Decades,Bar,43.258051,-79.877955,0.877477109671395
hub_562,Charlton at Locke,43.25332704523968,-79.886634349823,8,hub_562,Vip Saturdays,Night Club,43.258051,-79.877955,0.877477109671395
hub_562,Charlton at Locke,43.25332704523968,-79.886634349823,8,hub_562,Viva Night Club,Night Club,43.25826,-79.878871,0.8343506371847724
hub_562,Charlton at Locke,43.25332704523968,-79.886634349823,8,hub_562,West Town Bar & Grill,Bar,43.254502,-79.886256,0.13419402189912155
hub_563,Locke at Hunter,43.256556155396176,-79.88510146737099,3,hub_563,Absinthe Lounge,Bar,43.258547,-79.87878,0.5577338317282363
hub_563,Locke at Hunter,43.256556155396176,-79.88510146737099,3,hub_563,Arcade,Arcade,43.258171,-79.878578,0.5579621009611944
hub_563,Locke at Hunter,43.256556155396176,-79.88510146737099,3,hub_563,Doors Pub & Pizzeria,Pub,43.257353,-79.8783,0.5578771184607481
hub_563,Locke at Hunter,43.256556155396176,-79.88510146737099,3,hub_563,Mark's Chinese Food & Tavern,Bar,43.260901,-79.883074,0.5102603649202158
hub_563,Locke at Hunter,43.256556155396176,-79.88510146737099,3,hub_563,Moodys,Bar,43.258164,-79.878669,0.5507367957044382
hub_563,Locke at Hunter,43.256556155396176,-79.88510146737099,3,hub_563,Side Bar,Lounge,43.258331,-79.877956,0.6113780165365161
hub_563,Locke at Hunter,43.256556155396176,-79.88510146737099,3,hub_563,Ten Decades,Bar,43.258051,-79.877955,0.6021284392962399
hub_563,Locke at Hunter,43.256556155396176,-79.88510146737099,3,hub_563,Vip Saturdays,Night Club,43.258051,-79.877955,0.6021284392962399
hub_563,Locke at Hunter,43.256556155396176,-79.88510146737099,3,hub_563,Viva Night Club,Night Club,43.25826,-79.878871,0.538949681378815
hub_563,Locke at Hunter,43.256556155396176,-79.88510146737099,3,hub_563,West Town Bar & Grill,Bar,43.254502,-79.886256,0.24680730300518616
hub_564,Locke at Napier,43.2628018805713,-79.8827367298478,4,hub_564,Absinthe Lounge,Bar,43.258547,-79.87878,0.5714037999687693
hub_564,Locke at Napier,43.2628018805713,-79.8827367298478,4,hub_564,Arcade,Arcade,43.258171,-79.878578,0.6152741007810458
hub_564,Locke at Napier,43.2628018805713,-79.8827367298478,4,hub_564,Gown & Gavel,Bar,43.258338,-79.877864,0.6340876297432495
hub_564,Locke at Napier,43.2628018805713,-79.8827367298478,4,hub_564,Mark's Chinese Food & Tavern,Bar,43.260901,-79.883074,0.2131253526945687
hub_564,Locke at Napier,43.2628018805713,-79.8827367298478,4,hub_564,Moodys,Bar,43.258164,-79.878669,0.6119277668983333
hub_564,Locke at Napier,43.2628018805713,-79.8827367298478,4,hub_564,Side Bar,Lounge,43.258331,-79.877956,0.6300926874876175
hub_564,Locke at Napier,43.2628018805713,-79.8827367298478,4,hub_564,Stonewalls,Lounge,43.263101,-79.878485,0.345882192636135
hub_564,Locke at Napier,43.2628018805713,-79.8827367298478,4,hub_564,The Strathcona,Wine Bar,43.25959,-79.878308,0.5061246613666146
hub_564,Locke at Napier,43.2628018805713,-79.8827367298478,4,hub_564,Tonic Lounge,Night Club,43.262826,-79.877697,0.40809647828378415
hub_564,Locke at Napier,43.2628018805713,-79.8827367298478,4,hub_564,Viva Night Club,Night Club,43.25826,-79.878871,0.5941808024397962
hub_565,York at Inchbury,43.2659146108256,-79.8819495909127,7,hub_565,Absinthe Lounge,Bar,43.258547,-79.87878,0.8585037475516095
hub_565,York at Inchbury,43.2659146108256,-79.8819495909127,7,hub_565,Arcade,Arcade,43.258171,-79.878578,0.9032965894635978
hub_565,York at Inchbury,43.2659146108256,-79.8819495909127,7,hub_565,Elixir Lounge & Nightclub,Night Club,43.258514,-79.877755,0.8902517160857802
hub_565,York at Inchbury,43.2659146108256,-79.8819495909127,7,hub_565,Gown & Gavel,Bar,43.258338,-79.877864,0.9051092490087411
hub_565,York at Inchbury,43.2659146108256,-79.8819495909127,7,hub_565,Mark's Chinese Food & Tavern,Bar,43.260901,-79.883074,0.5648739243767309
hub_565,York at Inchbury,43.2659146108256,-79.8819495909127,7,hub_565,Moodys,Bar,43.258164,-79.878669,0.9018406234121092
hub_565,York at Inchbury,43.2659146108256,-79.8819495909127,7,hub_565,Stonewalls,Lounge,43.263101,-79.878485,0.4202147631671201
hub_565,York at Inchbury,43.2659146108256,-79.8819495909127,7,hub_565,The Strathcona,Wine Bar,43.25959,-79.878308,0.7625826880768825
hub_565,York at Inchbury,43.2659146108256,-79.8819495909127,7,hub_565,Tonic Lounge,Night Club,43.262826,-79.877697,0.4863334991617477
hub_565,York at Inchbury,43.2659146108256,-79.8819495909127,7,hub_565,Viva Night Club,Night Club,43.25826,-79.878871,0.8869092532446404
hub_566,Aberdeen at Queen,43.2488085584277,-79.8836993988543,5,hub_566,Ray's Place,Pub,43.252556,-79.891906,0.7844754925550166
hub_566,Aberdeen at Queen,43.2488085584277,-79.8836993988543,5,hub_566,West Town Bar & Grill,Bar,43.254502,-79.886256,0.6660817999361047
hub_567,Charlton at Queen,43.25200741706332,-79.88158643245697,8,hub_567,Absinthe Lounge,Bar,43.258547,-79.87878,0.7618586231970904
hub_567,Charlton at Queen,43.25200741706332,-79.88158643245697,8,hub_567,Arcade,Arcade,43.258171,-79.878578,0.7273758996671589
hub_567,Charlton at Queen,43.25200741706332,-79.88158643245697,8,hub_567,Bourbon & Brass Speakeasy,Music Venue,43.258051,-79.877955,0.7335488344286754
hub_567,Charlton at Queen,43.25200741706332,-79.88158643245697,8,hub_567,Doors Pub & Pizzeria,Pub,43.257353,-79.8783,0.6512680023880429
hub_567,Charlton at Queen,43.25200741706332,-79.88158643245697,8,hub_567,Moodys,Bar,43.258164,-79.878669,0.7242048835219952
hub_567,Charlton at Queen,43.25200741706332,-79.88158643245697,8,hub_567,Side Bar,Lounge,43.258331,-79.877956,0.7621424318725073
hub_567,Charlton at Queen,43.25200741706332,-79.88158643245697,8,hub_567,Ten Decades,Bar,43.258051,-79.877955,0.7335488344286754
hub_567,Charlton at Queen,43.25200741706332,-79.88158643245697,8,hub_567,Vip Saturdays,Night Club,43.258051,-79.877955,0.7335488344286754
hub_567,Charlton at Queen,43.25200741706332,-79.88158643245697,8,hub_567,Viva Night Club,Night Club,43.25826,-79.878871,0.729204710683681
hub_567,Charlton at Queen,43.25200741706332,-79.88158643245697,8,hub_567,West Town Bar & Grill,Bar,43.254502,-79.886256,0.46899636439400594
hub_568,H.A.A.A. Park,43.2540651616154,-79.8819466027797,5,hub_568,Absinthe Lounge,Bar,43.258547,-79.87878,0.5604658756004124
hub_568,H.A.A.A. Park,43.2540651616154,-79.8819466027797,5,hub_568,Arcade,Arcade,43.258171,-79.878578,0.531842154021941
hub_568,H.A.A.A. Park,43.2540651616154,-79.8819466027797,5,hub_568,Bourbon & Brass Speakeasy,Music Venue,43.258051,-79.877955,0.548564282215035
hub_568,H.A.A.A. Park,43.2540651616154,-79.8819466027797,5,hub_568,Doors Pub & Pizzeria,Pub,43.257353,-79.8783,0.4699655586502882
hub_568,H.A.A.A. Park,43.2540651616154,-79.8819466027797,5,hub_568,Moodys,Bar,43.258164,-79.878669,0.5274272541281864
hub_568,H.A.A.A. Park,43.2540651616154,-79.8819466027797,5,hub_568,Side Bar,Lounge,43.258331,-79.877956,0.5739662944042802
hub_568,H.A.A.A. Park,43.2540651616154,-79.8819466027797,5,hub_568,Ten Decades,Bar,43.258051,-79.877955,0.548564282215035
hub_568,H.A.A.A. Park,43.2540651616154,-79.8819466027797,5,hub_568,Vip Saturdays,Night Club,43.258051,-79.877955,0.548564282215035
hub_568,H.A.A.A. Park,43.2540651616154,-79.8819466027797,5,hub_568,Viva Night Club,Night Club,43.25826,-79.878871,0.528779041081687
hub_568,H.A.A.A. Park,43.2540651616154,-79.8819466027797,5,hub_568,West Town Bar & Grill,Bar,43.254502,-79.886256,0.35236262452267847
hub_569,Hunter at Hess,43.255383107655966,-79.87889617681503,13,hub_569,Arcade,Arcade,43.258171,-79.878578,0.3110684816569686
hub_569,Hunter at Hess,43.255383107655966,-79.87889617681503,13,hub_569,Bourbon & Brass Speakeasy,Music Venue,43.258051,-79.877955,0.30629089362851625
hub_569,Hunter at Hess,43.255383107655966,-79.87889617681503,13,hub_569,Doors Pub & Pizzeria,Pub,43.257353,-79.8783,0.22429973577348963
hub_569,Hunter at Hess,43.255383107655966,-79.87889617681503,13,hub_569,Moodys,Bar,43.258164,-79.878669,0.3097679140881149
hub_569,Hunter at Hess,43.255383107655966,-79.87889617681503,13,hub_569,Side Bar,Lounge,43.258331,-79.877956,0.33651691515781496
hub_569,Hunter at Hess,43.255383107655966,-79.87889617681503,13,hub_569,Sizzle Steak House & Lounge,Lounge,43.258263,-79.877388,0.34273008568360924
hub_569,Hunter at Hess,43.255383107655966,-79.87889617681503,13,hub_569,Ten Decades,Bar,43.258051,-79.877955,0.30629089362851625
hub_569,Hunter at Hess,43.255383107655966,-79.87889617681503,13,hub_569,The Standard Lounge,Night Club,43.258204,-79.877424,0.33556161689337444
hub_569,Hunter at Hess,43.255383107655966,-79.87889617681503,13,hub_569,Vip Saturdays,Night Club,43.258051,-79.877955,0.30629089362851625
hub_569,Hunter at Hess,43.255383107655966,-79.87889617681503,13,hub_569,Viva Night Club,Night Club,43.25826,-79.878871,0.31990233051264394
hub_570,Queen at Peter,43.2618861338306,-79.877606006297,1,hub_570,Absinthe Lounge,Bar,43.258547,-79.87878,0.38327216086948185
hub_570,Queen at Peter,43.2618861338306,-79.877606006297,1,hub_570,Elixir Lounge & Nightclub,Night Club,43.258514,-79.877755,0.3751582327564277
hub_570,Queen at Peter,43.2618861338306,-79.877606006297,1,hub_570,Gown & Gavel,Bar,43.258338,-79.877864,0.3950872327325776
hub_570,Queen at Peter,43.2618861338306,-79.877606006297,1,hub_570,Lazy Flamingo,Bar,43.258432,-79.87737,0.38455733422899024
hub_570,Queen at Peter,43.2618861338306,-79.877606006297,1,hub_570,Side Bar,Lounge,43.258331,-79.877956,0.3963275125464558
hub_570,Queen at Peter,43.2618861338306,-79.877606006297,1,hub_570,Sizzle Steak House & Lounge,Lounge,43.258263,-79.877388,0.40326070057039237
hub_570,Queen at Peter,43.2618861338306,-79.877606006297,1,hub_570,Stonewalls,Lounge,43.263101,-79.878485,0.15269094345460615
hub_570,Queen at Peter,43.2618861338306,-79.877606006297,1,hub_570,The Masque Wine Jazz Bar,Jazz and Blues Venue,43.258432,-79.87737,0.38455733422899024
hub_570,Queen at Peter,43.2618861338306,-79.877606006297,1,hub_570,The Strathcona,Wine Bar,43.25959,-79.878308,0.2615700392304144
hub_570,Queen at Peter,43.2618861338306,-79.877606006297,1,hub_570,Tonic Lounge,Night Club,43.262826,-79.877697,0.1047677688697287
hub_571,Oxford at York,43.26456372689135,-79.8777937889099,4,hub_571,Absinthe Lounge,Bar,43.258547,-79.87878,0.673778876344609
hub_571,Oxford at York,43.26456372689135,-79.8777937889099,4,hub_571,Elixir Lounge & Nightclub,Night Club,43.258514,-79.877755,0.6727062707510908
hub_571,Oxford at York,43.26456372689135,-79.8777937889099,4,hub_571,Gown & Gavel,Bar,43.258338,-79.877864,0.6922925909098815
hub_571,Oxford at York,43.26456372689135,-79.8777937889099,4,hub_571,Lazy Flamingo,Bar,43.258432,-79.87737,0.6826799755912416
hub_571,Oxford at York,43.26456372689135,-79.8777937889099,4,hub_571,Mark's Chinese Food & Tavern,Bar,43.260901,-79.883074,0.5904935829651667
hub_571,Oxford at York,43.26456372689135,-79.8777937889099,4,hub_571,Side Bar,Lounge,43.258331,-79.877956,0.693172072674369
hub_571,Oxford at York,43.26456372689135,-79.8777937889099,4,hub_571,Stonewalls,Lounge,43.263101,-79.878485,0.17200834020593592
hub_571,Oxford at York,43.26456372689135,-79.8777937889099,4,hub_571,The Masque Wine Jazz Bar,Jazz and Blues Venue,43.258432,-79.87737,0.6826799755912416
hub_571,Oxford at York,43.26456372689135,-79.8777937889099,4,hub_571,The Strathcona,Wine Bar,43.25959,-79.878308,0.5546184146780352
hub_571,Oxford at York,43.26456372689135,-79.8777937889099,4,hub_571,Tonic Lounge,Night Club,43.262826,-79.877697,0.1933852893922679
hub_572,Durand Park,43.24978615747242,-79.87574994564056,6,hub_572,Cat 'N' Fiddle,Pub,43.251502,-79.868593,0.6102361616833939
hub_572,Durand Park,43.24978615747242,-79.87574994564056,6,hub_572,Gallagher's Bar and Lounge 69 Augusta S,Arts and Entertainment,43.251655,-79.868063,0.6563331752908675
hub_572,Durand Park,43.24978615747242,-79.87574994564056,6,hub_572,Hamilton Club,Night Club,43.255183,-79.869448,0.7877884431400515
hub_572,Durand Park,43.24978615747242,-79.87574994564056,6,hub_572,M Bar,Night Club,43.251849,-79.871341,0.4244064105981231
hub_572,Durand Park,43.24978615747242,-79.87574994564056,6,hub_572,Mezcal TNT,Bar,43.252188,-79.871305,0.4482460884622127
hub_572,Durand Park,43.24978615747242,-79.87574994564056,6,hub_572,Odds Bar,Sports Bar,43.251849,-79.871341,0.4244064105981231
hub_572,Durand Park,43.24978615747242,-79.87574994564056,6,hub_572,The Judge,Bar,43.252249,-79.869786,0.5552513241788656
hub_572,Durand Park,43.24978615747242,-79.87574994564056,6,hub_572,The Lionshead Pub,Pub,43.252287,-79.867845,0.6980046040132725
hub_572,Durand Park,43.24978615747242,-79.87574994564056,6,hub_572,The Pheasant Plucker,Pub,43.251875,-79.870279,0.5002793402205026
hub_572,Durand Park,43.24978615747242,-79.87574994564056,6,hub_572,The Ship,Pub,43.252066,-79.869987,0.5311426243453597
hub_573,James S at Charlton,43.2496354495324,-79.8720555723035,4,hub_573,Cat 'N' Fiddle,Pub,43.251502,-79.868593,0.34888572403168916
hub_573,James S at Charlton,43.2496354495324,-79.8720555723035,4,hub_573,Gallagher's Bar and Lounge 69 Augusta S,Arts and Entertainment,43.251655,-79.868063,0.3936881135309092
hub_573,James S at Charlton,43.2496354495324,-79.8720555723035,4,hub_573,Liquid Kitty,Night Club,43.253962,-79.867155,0.6236751829889343
hub_573,James S at Charlton,43.2496354495324,-79.8720555723035,4,hub_573,M Bar,Night Club,43.251849,-79.871341,0.25284787367555217
hub_573,James S at Charlton,43.2496354495324,-79.8720555723035,4,hub_573,Mezcal TNT,Bar,43.252188,-79.871305,0.2902673319298797
hub_573,James S at Charlton,43.2496354495324,-79.8720555723035,4,hub_573,Odds Bar,Sports Bar,43.251849,-79.871341,0.25284787367555217
hub_573,James S at Charlton,43.2496354495324,-79.8720555723035,4,hub_573,The Judge,Bar,43.252249,-79.869786,0.34386516365907216
hub_573,James S at Charlton,43.2496354495324,-79.8720555723035,4,hub_573,The Lionshead Pub,Pub,43.252287,-79.867845,0.45079971392893664
hub_573,James S at Charlton,43.2496354495324,-79.8720555723035,4,hub_573,The Pheasant Plucker,Pub,43.251875,-79.870279,0.28760585134944133
hub_573,James S at Charlton,43.2496354495324,-79.8720555723035,4,hub_573,The Ship,Pub,43.252066,-79.869987,0.31797901545904717
hub_574,Bay at Bold,43.2538302267771,-79.8753935613187,5,hub_574,Anchor Bar,Lounge,43.257946,-79.87279,0.5038868911276739
hub_574,Bay at Bold,43.2538302267771,-79.8753935613187,5,hub_574,Doors Pub & Pizzeria,Pub,43.257353,-79.8783,0.4569915536584348
hub_574,Bay at Bold,43.2538302267771,-79.8753935613187,5,hub_574,Hamilton Club,Night Club,43.255183,-79.869448,0.5044512427351133
hub_574,Bay at Bold,43.2538302267771,-79.8753935613187,5,hub_574,M Bar,Night Club,43.251849,-79.871341,0.39528790087551957
hub_574,Bay at Bold,43.2538302267771,-79.8753935613187,5,hub_574,Mezcal TNT,Bar,43.252188,-79.871305,0.3781355631826282
hub_574,Bay at Bold,43.2538302267771,-79.8753935613187,5,hub_574,Odds Bar,Sports Bar,43.251849,-79.871341,0.39528790087551957
hub_574,Bay at Bold,43.2538302267771,-79.8753935613187,5,hub_574,Ten Decades,Bar,43.258051,-79.877955,0.5131257380275497
hub_574,Bay at Bold,43.2538302267771,-79.8753935613187,5,hub_574,The Judge,Bar,43.252249,-79.869786,0.4869882431601495
hub_574,Bay at Bold,43.2538302267771,-79.8753935613187,5,hub_574,The Pheasant Plucker,Pub,43.251875,-79.870279,0.4678050898594209
hub_574,Bay at Bold,43.2538302267771,-79.8753935613187,5,hub_574,Vip Saturdays,Night Club,43.258051,-79.877955,0.5131257380275497
hub_575,City Hall,43.2561324863605,-79.8744987564414,1,hub_575,Anchor Bar,Lounge,43.257946,-79.87279,0.24456626308637777
hub_575,City Hall,43.2561324863605,-79.8744987564414,1,hub_575,Doors Pub & Pizzeria,Pub,43.257353,-79.8783,0.33642192795018067
hub_575,City Hall,43.2561324863605,-79.8744987564414,1,hub_575,LOFT Lounge,Night Club,43.257617,-79.871251,0.31051959326412426
hub_575,City Hall,43.2561324863605,-79.8744987564414,1,hub_575,Lazy Flamingo,Bar,43.258432,-79.87737,0.3456066432690163
hub_575,City Hall,43.2561324863605,-79.8744987564414,1,hub_575,Sizzle Steak House & Lounge,Lounge,43.258263,-79.877388,0.3329673383185156
hub_575,City Hall,43.2561324863605,-79.8744987564414,1,hub_575,The George Hamilton,Bar,43.2582,-79.873853,0.23576969324126157
hub_575,City Hall,43.2561324863605,-79.8744987564414,1,hub_575,The Masque Wine Jazz Bar,Jazz and Blues Venue,43.258432,-79.87737,0.3456066432690163
hub_575,City Hall,43.2561324863605,-79.8744987564414,1,hub_575,The Standard Lounge,Night Club,43.258204,-79.877424,0.3304159221921854
hub_575,City Hall,43.2561324863605,-79.8744987564414,1,hub_575,Yuk Yuk's Comedy Cabaret,Comedy Club,43.258263,-79.873029,0.2651211552996439
hub_575,City Hall,43.2561324863605,-79.8744987564414,1,hub_575,Yuk Yuk's Comedy Club,Comedy Club,43.258263,-79.873029,0.2651211552996439
hub_576,Bay at York,43.25906138152248,-79.87338691949844,6,hub_576,Anchor Bar,Lounge,43.257946,-79.87279,0.13311178945328722
hub_576,Bay at York,43.25906138152248,-79.87338691949844,6,hub_576,Happy Hourz Pub,Pub,43.259965,-79.869097,0.3616303085024068
hub_576,Bay at York,43.25906138152248,-79.87338691949844,6,hub_576,LOFT Lounge,Night Club,43.257617,-79.871251,0.23603484149361034
hub_576,Bay at York,43.25906138152248,-79.87338691949844,6,hub_576,Lazy Flamingo,Bar,43.258432,-79.87737,0.33005295805833396
hub_576,Bay at York,43.25906138152248,-79.87338691949844,6,hub_576,Sizzle Steak House & Lounge,Lounge,43.258263,-79.877388,0.33594804991657123
hub_576,Bay at York,43.25906138152248,-79.87338691949844,6,hub_576,The George Hamilton,Bar,43.2582,-79.873853,0.10294943723671983
hub_576,Bay at York,43.25906138152248,-79.87338691949844,6,hub_576,The Masque Wine Jazz Bar,Jazz and Blues Venue,43.258432,-79.87737,0.33005295805833396
hub_576,Bay at York,43.25906138152248,-79.87338691949844,6,hub_576,The Standard Lounge,Night Club,43.258204,-79.877424,0.3405388269670115
hub_576,Bay at York,43.25906138152248,-79.87338691949844,6,hub_576,Yuk Yuk's Comedy Cabaret,Comedy Club,43.258263,-79.873029,0.09338767070746522
hub_576,Bay at York,43.25906138152248,-79.87338691949844,6,hub_576,Yuk Yuk's Comedy Club,Comedy Club,43.258263,-79.873029,0.09338767070746522
hub_577,Bay at Mulberry,43.26319844157448,-79.87180307507515,3,hub_577,B Me,Bar,43.259542,-79.868052,0.5075114020569561
hub_577,Bay at Mulberry,43.26319844157448,-79.87180307507515,3,hub_577,Bar Sazerac,Night Club,43.263456,-79.865886,0.4799810532769294
hub_577,Bay at Mulberry,43.26319844157448,-79.87180307507515,3,hub_577,Happy Hourz Pub,Pub,43.259965,-79.869097,0.42105471657908333
hub_577,Bay at Mulberry,43.26319844157448,-79.87180307507515,3,hub_577,L'étranger on James,Arts and Entertainment,43.259535,-79.868144,0.5037173426221989
hub_577,Bay at Mulberry,43.26319844157448,-79.87180307507515,3,hub_577,Merit Brewing,Bar,43.25949,-79.867997,0.5148092222689067
hub_577,Bay at Mulberry,43.26319844157448,-79.87180307507515,3,hub_577,Saint James Espresso Bar & Eatery,Bar,43.260862,-79.866884,0.4755600801795106
hub_577,Bay at Mulberry,43.26319844157448,-79.87180307507515,3,hub_577,The Brain,Bar,43.261915,-79.867016,0.4130670790604968
hub_577,Bay at Mulberry,43.26319844157448,-79.87180307507515,3,hub_577,The Green Smoothie Bar,Bar,43.262589,-79.866249,0.45481266883246757
hub_577,Bay at Mulberry,43.26319844157448,-79.87180307507515,3,hub_577,Tonic Lounge,Night Club,43.262826,-79.877697,0.4790472613032355
hub_577,Bay at Mulberry,43.26319844157448,-79.87180307507515,3,hub_577,Zyla's Music and Menu,Music Venue,43.264002,-79.86607,0.4727454612745791
hub_578,Bay at Strachan,43.26785864558976,-79.8679232597351,0,hub_578,Bar Sazerac,Night Club,43.263456,-79.865886,0.5165965803349329
hub_578,Bay at Strachan,43.26785864558976,-79.8679232597351,0,hub_578,Hamilton Strip,Night Club,43.263017,-79.862148,0.7131008697518203
hub_578,Bay at Strachan,43.26785864558976,-79.8679232597351,0,hub_578,Happy Hourz Pub,Pub,43.259965,-79.869097,0.8828638548886141
hub_578,Bay at Strachan,43.26785864558976,-79.8679232597351,0,hub_578,Nobody's Perfect Bar and Grill,Karaoke Bar,43.263367,-79.863413,0.6187226524799208
hub_578,Bay at Strachan,43.26785864558976,-79.8679232597351,0,hub_578,Route 66 Diner,Bar,43.272393,-79.862434,0.6721137569480575
hub_578,Bay at Strachan,43.26785864558976,-79.8679232597351,0,hub_578,Saint James Espresso Bar & Eatery,Bar,43.260862,-79.866884,0.7825293311569737
hub_578,Bay at Strachan,43.26785864558976,-79.8679232597351,0,hub_578,The Brain,Bar,43.261915,-79.867016,0.6649735030093314
hub_578,Bay at Strachan,43.26785864558976,-79.8679232597351,0,hub_578,The Green Smoothie Bar,Bar,43.262589,-79.866249,0.6014356478441713
hub_578,Bay at Strachan,43.26785864558976,-79.8679232597351,0,hub_578,This Ain't Hollywood,Arts and Entertainment,43.264986,-79.865634,0.36930976092106704
hub_578,Bay at Strachan,43.26785864558976,-79.8679232597351,0,hub_578,Zyla's Music and Menu,Music Venue,43.264002,-79.86607,0.4543355259111121
hub_579,Bayfront Park,43.26928827622911,-79.87132698297499,14,hub_579,Bar Sazerac,Night Club,43.263456,-79.865886,0.7840054530241614
hub_579,Bayfront Park,43.26928827622911,-79.87132698297499,14,hub_579,Nobody's Perfect Bar and Grill,Karaoke Bar,43.263367,-79.863413,0.9187623693364465
hub_579,Bayfront Park,43.26928827622911,-79.87132698297499,14,hub_579,Route 66 Diner,Bar,43.272393,-79.862434,0.7984940572770141
hub_579,Bayfront Park,43.26928827622911,-79.87132698297499,14,hub_579,Stonewalls,Lounge,43.263101,-79.878485,0.8995835450419538
hub_579,Bayfront Park,43.26928827622911,-79.87132698297499,14,hub_579,The Brain,Bar,43.261915,-79.867016,0.891085080389297
hub_579,Bayfront Park,43.26928827622911,-79.87132698297499,14,hub_579,The Green Smoothie Bar,Bar,43.262589,-79.866249,0.8508642302427348
hub_579,Bayfront Park,43.26928827622911,-79.87132698297499,14,hub_579,This Ain't Hollywood,Arts and Entertainment,43.264986,-79.865634,0.6643301378243752
hub_579,Bayfront Park,43.26928827622911,-79.87132698297499,14,hub_579,Tonic Lounge,Night Club,43.262826,-79.877697,0.8845191830421342
hub_579,Bayfront Park,43.26928827622911,-79.87132698297499,14,hub_579,Zyla's Music and Menu,Music Venue,43.264002,-79.86607,0.725739245297111
hub_580,Ainslie at Emerson,43.2495181157076,-79.9234422627427,8,hub_580,Emerson 109,Bar,43.25446,-79.92079,0.5900035534426026
hub_580,Ainslie at Emerson,43.2495181157076,-79.9234422627427,8,hub_580,Williams Coffee Pub,Bar,43.257365,-79.917947,0.9794784100574953
hub_581,Strachan at Mary,43.265938747249415,-79.86042380332947,4,hub_581,Bar Sazerac,Night Club,43.263456,-79.865886,0.5213714260969109
hub_581,Strachan at Mary,43.265938747249415,-79.86042380332947,4,hub_581,Fragoso Seafood Place,Bar,43.261057,-79.852728,0.8264262165535058
hub_581,Strachan at Mary,43.265938747249415,-79.86042380332947,4,hub_581,Hamilton Strip,Night Club,43.263017,-79.862148,0.35361085421102484
hub_581,Strachan at Mary,43.265938747249415,-79.86042380332947,4,hub_581,Nobody's Perfect Bar and Grill,Karaoke Bar,43.263367,-79.863413,0.3746459691044087
hub_581,Strachan at Mary,43.265938747249415,-79.86042380332947,4,hub_581,Route 66 Diner,Bar,43.272393,-79.862434,0.7359039517887148
hub_581,Strachan at Mary,43.265938747249415,-79.86042380332947,4,hub_581,Saint James Espresso Bar & Eatery,Bar,43.260862,-79.866884,0.769615059009531
hub_581,Strachan at Mary,43.265938747249415,-79.86042380332947,4,hub_581,The Brain,Bar,43.261915,-79.867016,0.6965012840406941
hub_581,Strachan at Mary,43.265938747249415,-79.86042380332947,4,hub_581,The Green Smoothie Bar,Bar,43.262589,-79.866249,0.601014598026435
hub_581,Strachan at Mary,43.265938747249415,-79.86042380332947,4,hub_581,This Ain't Hollywood,Arts and Entertainment,43.264986,-79.865634,0.43497127317380213
hub_581,Strachan at Mary,43.265938747249415,-79.86042380332947,4,hub_581,Zyla's Music and Menu,Music Venue,43.264002,-79.86607,0.5053628215712703
hub_582,Hughson at Picton,43.2701169222876,-79.861626657542,4,hub_582,Bar Sazerac,Night Club,43.263456,-79.865886,0.817016787704561
hub_582,Hughson at Picton,43.2701169222876,-79.861626657542,4,hub_582,Hamilton Strip,Night Club,43.263017,-79.862148,0.7906030713014542
hub_582,Hughson at Picton,43.2701169222876,-79.861626657542,4,hub_582,Nobody's Perfect Bar and Grill,Karaoke Bar,43.263367,-79.863413,0.7643665220708992
hub_582,Hughson at Picton,43.2701169222876,-79.861626657542,4,hub_582,Route 66 Diner,Bar,43.272393,-79.862434,0.26139288186618287
hub_582,Hughson at Picton,43.2701169222876,-79.861626657542,4,hub_582,The Green Smoothie Bar,Bar,43.262589,-79.866249,0.9169283262260701
hub_582,Hughson at Picton,43.2701169222876,-79.861626657542,4,hub_582,This Ain't Hollywood,Arts and Entertainment,43.264986,-79.865634,0.6563424354305208
hub_582,Hughson at Picton,43.2701169222876,-79.861626657542,4,hub_582,Zyla's Music and Menu,Music Venue,43.264002,-79.86607,0.7692624039529177
hub_583,Discovery Drive,43.27606684636728,-79.86029773950577,9,hub_583,Route 66 Diner,Bar,43.272393,-79.862434,0.44361516711336424
hub_585,Eastwood Arena,43.271621271914,-79.856711442486,3,hub_585,Route 66 Diner,Bar,43.272393,-79.862434,0.47118894335562495
hub_586,Catharine at Young,43.2496648107707,-79.8677950761702,5,hub_586,Cat 'N' Fiddle,Pub,43.251502,-79.868593,0.21426409138123317
hub_586,Catharine at Young,43.2496648107707,-79.8677950761702,5,hub_586,Corktown Tavern,Pub,43.249707,-79.864303,0.28286764993170044
hub_586,Catharine at Young,43.2496648107707,-79.8677950761702,5,hub_586,Gallagher's Bar and Lounge 69 Augusta S,Arts and Entertainment,43.251655,-79.868063,0.22236024738056287
hub_586,Catharine at Young,43.2496648107707,-79.8677950761702,5,hub_586,M Bar,Night Club,43.251849,-79.871341,0.3761135136253335
hub_586,Catharine at Young,43.2496648107707,-79.8677950761702,5,hub_586,Mezcal TNT,Bar,43.252188,-79.871305,0.3994067504604184
hub_586,Catharine at Young,43.2496648107707,-79.8677950761702,5,hub_586,Odds Bar,Sports Bar,43.251849,-79.871341,0.3761135136253335
hub_586,Catharine at Young,43.2496648107707,-79.8677950761702,5,hub_586,The Judge,Bar,43.252249,-79.869786,0.3294983213577684
hub_586,Catharine at Young,43.2496648107707,-79.8677950761702,5,hub_586,The Lionshead Pub,Pub,43.252287,-79.867845,0.2916021724920889
hub_586,Catharine at Young,43.2496648107707,-79.8677950761702,5,hub_586,The Pheasant Plucker,Pub,43.251875,-79.870279,0.317599719267593
hub_586,Catharine at Young,43.2496648107707,-79.8677950761702,5,hub_586,The Ship,Pub,43.252066,-79.869987,0.3206302786787899
hub_587,Main at Macnab,43.25586951986928,-79.87145036458969,1,hub_587,Anchor Bar,Lounge,43.257946,-79.87279,0.2551104576074168
hub_587,Main at Macnab,43.25586951986928,-79.87145036458969,1,hub_587,Club Absinthe,Night Club,43.256943,-79.867659,0.32942137515664177
hub_587,Main at Macnab,43.25586951986928,-79.87145036458969,1,hub_587,Hamilton Club,Night Club,43.255183,-79.869448,0.17922888862625458
hub_587,Main at Macnab,43.25586951986928,-79.87145036458969,1,hub_587,K Point Karaoke & Bar,Arts and Entertainment,43.258247,-79.868158,0.37546665911718147
hub_587,Main at Macnab,43.25586951986928,-79.87145036458969,1,hub_587,LOFT Lounge,Night Club,43.257617,-79.871251,0.19498050149509322
hub_587,Main at Macnab,43.25586951986928,-79.87145036458969,1,hub_587,The French,Wine Bar,43.257347,-79.867496,0.35991712603629267
hub_587,Main at Macnab,43.25586951986928,-79.87145036458969,1,hub_587,The George Hamilton,Bar,43.2582,-79.873853,0.3240519463624705
hub_587,Main at Macnab,43.25586951986928,-79.87145036458969,1,hub_587,Undefined,Bar,43.257392,-79.867642,0.3518191286190373
hub_587,Main at Macnab,43.25586951986928,-79.87145036458969,1,hub_587,Yuk Yuk's Comedy Cabaret,Comedy Club,43.258263,-79.873029,0.2952545563622203
hub_587,Main at Macnab,43.25586951986928,-79.87145036458969,1,hub_587,Yuk Yuk's Comedy Club,Comedy Club,43.258263,-79.873029,0.2952545563622203
hub_588,Ferguson at Barton,43.262056982995,-79.8582423171631,3,hub_588,Bar Sazerac,Night Club,43.263456,-79.865886,0.6381912260149315
hub_588,Ferguson at Barton,43.262056982995,-79.8582423171631,3,hub_588,Fragoso Seafood Place,Bar,43.261057,-79.852728,0.4601624861651928
hub_588,Ferguson at Barton,43.262056982995,-79.8582423171631,3,hub_588,Hamilton Strip,Night Club,43.263017,-79.862148,0.3337905819674435
hub_588,Ferguson at Barton,43.262056982995,-79.8582423171631,3,hub_588,Nobody's Perfect Bar and Grill,Karaoke Bar,43.263367,-79.863413,0.44330810793135295
hub_588,Ferguson at Barton,43.262056982995,-79.8582423171631,3,hub_588,Saint James Espresso Bar & Eatery,Bar,43.260862,-79.866884,0.7122721127749465
hub_588,Ferguson at Barton,43.262056982995,-79.8582423171631,3,hub_588,The Brain,Bar,43.261915,-79.867016,0.7106262646885475
hub_588,Ferguson at Barton,43.262056982995,-79.8582423171631,3,hub_588,The Green Smoothie Bar,Bar,43.262589,-79.866249,0.651032604007722
hub_588,Ferguson at Barton,43.262056982995,-79.8582423171631,3,hub_588,This Ain't Hollywood,Arts and Entertainment,43.264986,-79.865634,0.681403669603341
hub_588,Ferguson at Barton,43.262056982995,-79.8582423171631,3,hub_588,Vavo John's Bar,Bar,43.260077,-79.850198,0.6876004493494269
hub_588,Ferguson at Barton,43.262056982995,-79.8582423171631,3,hub_588,Zyla's Music and Menu,Music Venue,43.264002,-79.86607,0.6697202611717705
hub_589,Ferrie at Furguson,43.266617945064255,-79.85489845275879,5,hub_589,Bar Sazerac,Night Club,43.263456,-79.865886,0.9566282957734549
hub_589,Ferrie at Furguson,43.266617945064255,-79.85489845275879,5,hub_589,Fragoso Seafood Place,Bar,43.261057,-79.852728,0.6428394295743135
hub_589,Ferrie at Furguson,43.266617945064255,-79.85489845275879,5,hub_589,Galley Pump,Pub,43.262919,-79.84451,0.9363417146792729
hub_589,Ferrie at Furguson,43.266617945064255,-79.85489845275879,5,hub_589,Hamilton Strip,Night Club,43.263017,-79.862148,0.7105646227562655
hub_589,Ferrie at Furguson,43.266617945064255,-79.85489845275879,5,hub_589,Nobody's Perfect Bar and Grill,Karaoke Bar,43.263367,-79.863413,0.7784550225011754
hub_589,Ferrie at Furguson,43.266617945064255,-79.85489845275879,5,hub_589,Route 66 Diner,Bar,43.272393,-79.862434,0.8857812166174824
hub_589,Ferrie at Furguson,43.266617945064255,-79.85489845275879,5,hub_589,This Ain't Hollywood,Arts and Entertainment,43.264986,-79.865634,0.8879977475756383
hub_589,Ferrie at Furguson,43.266617945064255,-79.85489845275879,5,hub_589,Vavo John's Bar,Bar,43.260077,-79.850198,0.8208894490685411
hub_589,Ferrie at Furguson,43.266617945064255,-79.85489845275879,5,hub_589,Zyla's Music and Menu,Music Venue,43.264002,-79.86607,0.9501874870533504
hub_590,Ferguson at Cannon,43.2587508364231,-79.8598228455297,2,hub_590,Black Forest Inn,Bar,43.254392,-79.861571,0.5049328517978344
hub_590,Ferguson at Cannon,43.2587508364231,-79.8598228455297,2,hub_590,Fragoso Seafood Place,Bar,43.261057,-79.852728,0.6291571391356529
hub_590,Ferguson at Cannon,43.2587508364231,-79.8598228455297,2,hub_590,Hamilton Strip,Night Club,43.263017,-79.862148,0.5103753005301075
hub_590,Ferguson at Cannon,43.2587508364231,-79.8598228455297,2,hub_590,Niza Ent,Night Club,43.253717,-79.862338,0.5956449713787392
hub_590,Ferguson at Cannon,43.2587508364231,-79.8598228455297,2,hub_590,Nobody's Perfect Bar and Grill,Karaoke Bar,43.263367,-79.863413,0.5899047662956868
hub_590,Ferguson at Cannon,43.2587508364231,-79.8598228455297,2,hub_590,Saint James Espresso Bar & Eatery,Bar,43.260862,-79.866884,0.6181116045799658
hub_590,Ferguson at Cannon,43.2587508364231,-79.8598228455297,2,hub_590,Sous Bas,Lounge,43.254119,-79.863658,0.6014343132303172
hub_590,Ferguson at Cannon,43.2587508364231,-79.8598228455297,2,hub_590,TJ King Karaoke,Amusement Park,43.254514,-79.86289,0.5325827164073518
hub_590,Ferguson at Cannon,43.2587508364231,-79.8598228455297,2,hub_590,Undefined,Bar,43.257392,-79.867642,0.6509763232043558
hub_590,Ferguson at Cannon,43.2587508364231,-79.8598228455297,2,hub_590,Undergound,Night Club,43.256647,-79.864966,0.47769873654727085
hub_591,Ferguson at King William,43.2551792486624,-79.8614431097373,1,hub_591,33 Bowen,Music Venue,43.253973,-79.866276,0.41373685426872203
hub_591,Ferguson at King William,43.2551792486624,-79.8614431097373,1,hub_591,Black Forest Inn,Bar,43.254392,-79.861571,0.08814863791298663
hub_591,Ferguson at King William,43.2551792486624,-79.8614431097373,1,hub_591,Mighty Mikes Pub & Billiards,Pool Hall,43.254333,-79.865966,0.37817933772902346
hub_591,Ferguson at King William,43.2551792486624,-79.8614431097373,1,hub_591,Niza Ent,Night Club,43.253717,-79.862338,0.17801498928808723
hub_591,Ferguson at King William,43.2551792486624,-79.8614431097373,1,hub_591,Sous Bas,Lounge,43.254119,-79.863658,0.21464778544933966
hub_591,Ferguson at King William,43.2551792486624,-79.8614431097373,1,hub_591,TJ King Karaoke,Amusement Park,43.254514,-79.86289,0.13857167962684566
hub_591,Ferguson at King William,43.2551792486624,-79.8614431097373,1,hub_591,Tailgate Charlie's,Sports Bar,43.253962,-79.867155,0.48197347086255926
hub_591,Ferguson at King William,43.2551792486624,-79.8614431097373,1,hub_591,Tea Hut,Bar,43.254244,-79.865672,0.35791744829390415
hub_591,Ferguson at King William,43.2551792486624,-79.8614431097373,1,hub_591,Undergound,Night Club,43.256647,-79.864966,0.3286787867846661
hub_591,Ferguson at King William,43.2551792486624,-79.8614431097373,1,hub_591,Zen Lounge,Lounge,43.253962,-79.867155,0.48197347086255926
hub_593,Victoria at Barton,43.26124519046125,-79.853318631649,4,hub_593,E's Sports Bar,Sports Bar,43.252516,-79.851055,0.9878001370086987
hub_593,Victoria at Barton,43.26124519046125,-79.853318631649,4,hub_593,Ed's Sports Bar,Lounge,43.252523,-79.850963,0.988446098886573
hub_593,Victoria at Barton,43.26124519046125,-79.853318631649,4,hub_593,Fragoso Seafood Place,Bar,43.261057,-79.852728,0.05220468773445578
hub_593,Victoria at Barton,43.26124519046125,-79.853318631649,4,hub_593,Galley Pump,Pub,43.262919,-79.84451,0.7371623299666191
hub_593,Victoria at Barton,43.26124519046125,-79.853318631649,4,hub_593,Hamilton Strip,Night Club,43.263017,-79.862148,0.7416068898937153
hub_593,Victoria at Barton,43.26124519046125,-79.853318631649,4,hub_593,Mosaic - Hamilton,Beer Bar,43.259543,-79.846955,0.5489711481531814
hub_593,Victoria at Barton,43.26124519046125,-79.853318631649,4,hub_593,Nobody's Perfect Bar and Grill,Karaoke Bar,43.263367,-79.863413,0.8507587435570388
hub_593,Victoria at Barton,43.26124519046125,-79.853318631649,4,hub_593,Rebel's Rock Irish Pub,Bar,43.252669,-79.852703,0.954931172172064
hub_593,Victoria at Barton,43.26124519046125,-79.853318631649,4,hub_593,Vavo John's Bar,Bar,43.260077,-79.850198,0.2841304978267279
hub_594,Cannon at East,43.25729552525069,-79.85334813594818,2,hub_594,Black Forest Inn,Bar,43.254392,-79.861571,0.7400541190636442
hub_594,Cannon at East,43.25729552525069,-79.85334813594818,2,hub_594,Carlton Tavern,Karaoke Bar,43.252253,-79.849388,0.6459439255037703
hub_594,Cannon at East,43.25729552525069,-79.85334813594818,2,hub_594,E's Sports Bar,Sports Bar,43.252516,-79.851055,0.5629710241389893
hub_594,Cannon at East,43.25729552525069,-79.85334813594818,2,hub_594,Ed's Sports Bar,Lounge,43.252523,-79.850963,0.564741027108992
hub_594,Cannon at East,43.25729552525069,-79.85334813594818,2,hub_594,Fragoso Seafood Place,Bar,43.261057,-79.852728,0.421260828097403
hub_594,Cannon at East,43.25729552525069,-79.85334813594818,2,hub_594,Mosaic - Hamilton,Beer Bar,43.259543,-79.846955,0.574877074498676
hub_594,Cannon at East,43.25729552525069,-79.85334813594818,2,hub_594,Niza Ent,Night Club,43.253717,-79.862338,0.8296797235677363
hub_594,Cannon at East,43.25729552525069,-79.85334813594818,2,hub_594,Rebel's Rock Irish Pub,Bar,43.252669,-79.852703,0.5170923269526919
hub_594,Cannon at East,43.25729552525069,-79.85334813594818,2,hub_594,TJ King Karaoke,Amusement Park,43.254514,-79.86289,0.8323313510503805
hub_594,Cannon at East,43.25729552525069,-79.85334813594818,2,hub_594,Vavo John's Bar,Bar,43.260077,-79.850198,0.4009140999352303
hub_596,Wentworth Stairs,43.24487936776345,-79.85186353325844,3,hub_596,Carlton Tavern,Karaoke Bar,43.252253,-79.849388,0.8440698314144682
hub_596,Wentworth Stairs,43.24487936776345,-79.85186353325844,3,hub_596,E's Sports Bar,Sports Bar,43.252516,-79.851055,0.8516760840061008
hub_596,Wentworth Stairs,43.24487936776345,-79.85186353325844,3,hub_596,Ed's Sports Bar,Lounge,43.252523,-79.850963,0.8530569107853363
hub_596,Wentworth Stairs,43.24487936776345,-79.85186353325844,3,hub_596,Ideal Vapes,Lounge,43.241421,-79.852798,0.3919314456530516
hub_596,Wentworth Stairs,43.24487936776345,-79.85186353325844,3,hub_596,Jax Bar & Grill,Dive Bar,43.249934,-79.848996,0.6081462428987237
hub_596,Wentworth Stairs,43.24487936776345,-79.85186353325844,3,hub_596,Rebel's Rock Irish Pub,Bar,43.252669,-79.852703,0.8688319904777044
hub_596,Wentworth Stairs,43.24487936776345,-79.85186353325844,3,hub_596,Stoneroads Bar & Grill,Bar,43.241259,-79.852724,0.4085555509120852
hub_597,Stinson at Blythe,43.2480282225403,-79.8550984051804,0,hub_597,Black Forest Inn,Bar,43.254392,-79.861571,0.8806386920763917
hub_597,Stinson at Blythe,43.2480282225403,-79.8550984051804,0,hub_597,Carlton Tavern,Karaoke Bar,43.252253,-79.849388,0.6592310670131227
hub_597,Stinson at Blythe,43.2480282225403,-79.8550984051804,0,hub_597,Corktown Tavern,Pub,43.249707,-79.864303,0.7685202862604947
hub_597,Stinson at Blythe,43.2480282225403,-79.8550984051804,0,hub_597,E's Sports Bar,Sports Bar,43.252516,-79.851055,0.596876270377688
hub_597,Stinson at Blythe,43.2480282225403,-79.8550984051804,0,hub_597,Ed's Sports Bar,Lounge,43.252523,-79.850963,0.6016430977302748
hub_597,Stinson at Blythe,43.2480282225403,-79.8550984051804,0,hub_597,Ideal Vapes,Lounge,43.241421,-79.852798,0.7579493372272307
hub_597,Stinson at Blythe,43.2480282225403,-79.8550984051804,0,hub_597,Jax Bar & Grill,Dive Bar,43.249934,-79.848996,0.5377631653774988
hub_597,Stinson at Blythe,43.2480282225403,-79.8550984051804,0,hub_597,Niza Ent,Night Club,43.253717,-79.862338,0.8625106597974377
hub_597,Stinson at Blythe,43.2480282225403,-79.8550984051804,0,hub_597,Rebel's Rock Irish Pub,Bar,43.252669,-79.852703,0.551294878564043
hub_597,Stinson at Blythe,43.2480282225403,-79.8550984051804,0,hub_597,Stoneroads Bar & Grill,Bar,43.241259,-79.852724,0.7768848991066469
hub_598,Hunter at Ferguson,43.251798383773966,-79.86318781971931,3,hub_598,33 Bowen,Music Venue,43.253973,-79.866276,0.3478821847903528
hub_598,Hunter at Ferguson,43.251798383773966,-79.86318781971931,3,hub_598,Black Forest Inn,Bar,43.254392,-79.861571,0.31673091389927194
hub_598,Hunter at Ferguson,43.251798383773966,-79.86318781971931,3,hub_598,Corktown Tavern,Pub,43.249707,-79.864303,0.24947453766204128
hub_598,Hunter at Ferguson,43.251798383773966,-79.86318781971931,3,hub_598,Gallagher's Bar and Lounge 69 Augusta S,Arts and Entertainment,43.251655,-79.868063,0.3951570665690969
hub_598,Hunter at Ferguson,43.251798383773966,-79.86318781971931,3,hub_598,Mighty Mikes Pub & Billiards,Pool Hall,43.254333,-79.865966,0.36063182315837644
hub_598,Hunter at Ferguson,43.251798383773966,-79.86318781971931,3,hub_598,Niza Ent,Night Club,43.253717,-79.862338,0.22416728257029253
hub_598,Hunter at Ferguson,43.251798383773966,-79.86318781971931,3,hub_598,Sous Bas,Lounge,43.254119,-79.863658,0.26083521344579547
hub_598,Hunter at Ferguson,43.251798383773966,-79.86318781971931,3,hub_598,TJ King Karaoke,Amusement Park,43.254514,-79.86289,0.3029244980821501
hub_598,Hunter at Ferguson,43.251798383773966,-79.86318781971931,3,hub_598,Tailgate Charlie's,Sports Bar,43.253962,-79.867155,0.40138306669057805
hub_598,Hunter at Ferguson,43.251798383773966,-79.86318781971931,3,hub_598,Tea Hut,Bar,43.254244,-79.865672,0.33827133604104065
hub_599,Corktown Park,43.2492552510953,-79.8641461491451,10,hub_599,33 Bowen,Music Venue,43.253973,-79.866276,0.5522216544571432
hub_599,Corktown Park,43.2492552510953,-79.8641461491451,10,hub_599,Cat 'N' Fiddle,Pub,43.251502,-79.868593,0.4383195280809026
hub_599,Corktown Park,43.2492552510953,-79.8641461491451,10,hub_599,Corktown Tavern,Pub,43.249707,-79.864303,0.05181365670450055
hub_599,Corktown Park,43.2492552510953,-79.8641461491451,10,hub_599,Gallagher's Bar and Lounge 69 Augusta S,Arts and Entertainment,43.251655,-79.868063,0.41453236434072055
hub_599,Corktown Park,43.2492552510953,-79.8641461491451,10,hub_599,Liquid Kitty,Night Club,43.253962,-79.867155,0.5773165749308339
hub_599,Corktown Park,43.2492552510953,-79.8641461491451,10,hub_599,Niza Ent,Night Club,43.253717,-79.862338,0.517284923243778
hub_599,Corktown Park,43.2492552510953,-79.8641461491451,10,hub_599,Sous Bas,Lounge,43.254119,-79.863658,0.5422672848553345
hub_599,Corktown Park,43.2492552510953,-79.8641461491451,10,hub_599,Tailgate Charlie's,Sports Bar,43.253962,-79.867155,0.5773165749308339
hub_599,Corktown Park,43.2492552510953,-79.8641461491451,10,hub_599,Tea Hut,Bar,43.254244,-79.865672,0.5683216356656423
hub_599,Corktown Park,43.2492552510953,-79.8641461491451,10,hub_599,The Lionshead Pub,Pub,43.252287,-79.867845,0.4509867211359712
hub_601,Stinson at West,43.2494985579078,-79.859726111821,1,hub_601,33 Bowen,Music Venue,43.253973,-79.866276,0.7272809141696893
hub_601,Stinson at West,43.2494985579078,-79.859726111821,1,hub_601,Black Forest Inn,Bar,43.254392,-79.861571,0.5642675176118537
hub_601,Stinson at West,43.2494985579078,-79.859726111821,1,hub_601,Cat 'N' Fiddle,Pub,43.251502,-79.868593,0.7518933034189726
hub_601,Stinson at West,43.2494985579078,-79.859726111821,1,hub_601,Corktown Tavern,Pub,43.249707,-79.864303,0.37141378062869923
hub_601,Stinson at West,43.2494985579078,-79.859726111821,1,hub_601,Gallagher's Bar and Lounge 69 Augusta S,Arts and Entertainment,43.251655,-79.868063,0.7165212136053979
hub_601,Stinson at West,43.2494985579078,-79.859726111821,1,hub_601,Niza Ent,Night Club,43.253717,-79.862338,0.5145607901419549
hub_601,Stinson at West,43.2494985579078,-79.859726111821,1,hub_601,Rebel's Rock Irish Pub,Bar,43.252669,-79.852703,0.6691902818015415
hub_601,Stinson at West,43.2494985579078,-79.859726111821,1,hub_601,Sous Bas,Lounge,43.254119,-79.863658,0.6044522636020185
hub_601,Stinson at West,43.2494985579078,-79.859726111821,1,hub_601,TJ King Karaoke,Amusement Park,43.254514,-79.86289,0.6137411747166537
hub_601,Stinson at West,43.2494985579078,-79.859726111821,1,hub_601,Tea Hut,Bar,43.254244,-79.865672,0.7143701046763796
hub_602,King William at Victoria,43.2541543623113,-79.85582381486893,5,hub_602,Black Forest Inn,Bar,43.254392,-79.861571,0.4661879902036199
hub_602,King William at Victoria,43.2541543623113,-79.85582381486893,5,hub_602,Carlton Tavern,Karaoke Bar,43.252253,-79.849388,0.5624642337678903
hub_602,King William at Victoria,43.2541543623113,-79.85582381486893,5,hub_602,E's Sports Bar,Sports Bar,43.252516,-79.851055,0.4270214983676721
hub_602,King William at Victoria,43.2541543623113,-79.85582381486893,5,hub_602,Ed's Sports Bar,Lounge,43.252523,-79.850963,0.4334455000107391
hub_602,King William at Victoria,43.2541543623113,-79.85582381486893,5,hub_602,Jax Bar & Grill,Dive Bar,43.249934,-79.848996,0.7252632163188623
hub_602,King William at Victoria,43.2541543623113,-79.85582381486893,5,hub_602,Niza Ent,Night Club,43.253717,-79.862338,0.529794126421905
hub_602,King William at Victoria,43.2541543623113,-79.85582381486893,5,hub_602,Rebel's Rock Irish Pub,Bar,43.252669,-79.852703,0.3019255705255688
hub_602,King William at Victoria,43.2541543623113,-79.85582381486893,5,hub_602,Sous Bas,Lounge,43.254119,-79.863658,0.6344688035413653
hub_602,King William at Victoria,43.2541543623113,-79.85582381486893,5,hub_602,TJ King Karaoke,Amusement Park,43.254514,-79.86289,0.5736533423457917
hub_602,King William at Victoria,43.2541543623113,-79.85582381486893,5,hub_602,Tea Hut,Bar,43.254244,-79.865672,0.7976231893070369
hub_603,Barton at Wentworth,43.25893246012055,-79.8449581861496,0,hub_603,Carlton Tavern,Karaoke Bar,43.252253,-79.849388,0.824822697453709
hub_603,Barton at Wentworth,43.25893246012055,-79.8449581861496,0,hub_603,Ed's Sports Bar,Lounge,43.252523,-79.850963,0.8627974951154732
hub_603,Barton at Wentworth,43.25893246012055,-79.8449581861496,0,hub_603,Fragoso Seafood Place,Bar,43.261057,-79.852728,0.6720711165716746
hub_603,Barton at Wentworth,43.25893246012055,-79.8449581861496,0,hub_603,Galley Pump,Pub,43.262919,-79.84451,0.4447662076541593
hub_603,Barton at Wentworth,43.25893246012055,-79.8449581861496,0,hub_603,Hamilton Specialty Bar,Lounge,43.261754,-79.835642,0.8170395010282537
hub_603,Barton at Wentworth,43.25893246012055,-79.8449581861496,0,hub_603,MaiPai Tiki Bar,Tiki Bar,43.257164,-79.837883,0.6057578130839543
hub_603,Barton at Wentworth,43.25893246012055,-79.8449581861496,0,hub_603,Mosaic - Hamilton,Beer Bar,43.259543,-79.846955,0.17537306316727574
hub_603,Barton at Wentworth,43.25893246012055,-79.8449581861496,0,hub_603,Sam's,Bar,43.256863,-79.838157,0.5969034618598174
hub_603,Barton at Wentworth,43.25893246012055,-79.8449581861496,0,hub_603,Vavo John's Bar,Bar,43.260077,-79.850198,0.4429874365867472
hub_603,Barton at Wentworth,43.25893246012055,-79.8449581861496,0,hub_603,Zacks,Bar,43.256738,-79.838321,0.5902809117007461
hub_604,Cannon at Wentworth - 96,43.2559617394464,-79.8475054418754,3,hub_604,Carlton Tavern,Karaoke Bar,43.252253,-79.849388,0.43967275489623797
hub_604,Cannon at Wentworth - 96,43.2559617394464,-79.8475054418754,3,hub_604,E's Sports Bar,Sports Bar,43.252516,-79.851055,0.4789966884250527
hub_604,Cannon at Wentworth - 96,43.2559617394464,-79.8475054418754,3,hub_604,Ed's Sports Bar,Lounge,43.252523,-79.850963,0.4739344873087002
hub_604,Cannon at Wentworth - 96,43.2559617394464,-79.8475054418754,3,hub_604,Fragoso Seafood Place,Bar,43.261057,-79.852728,0.7070086690330432
hub_604,Cannon at Wentworth - 96,43.2559617394464,-79.8475054418754,3,hub_604,Galley Pump,Pub,43.262919,-79.84451,0.8107491888628111
hub_604,Cannon at Wentworth - 96,43.2559617394464,-79.8475054418754,3,hub_604,Jax Bar & Grill,Dive Bar,43.249934,-79.848996,0.6810380918100195
hub_604,Cannon at Wentworth - 96,43.2559617394464,-79.8475054418754,3,hub_604,Mosaic - Hamilton,Beer Bar,43.259543,-79.846955,0.40070504364703263
hub_604,Cannon at Wentworth - 96,43.2559617394464,-79.8475054418754,3,hub_604,Rebel's Rock Irish Pub,Bar,43.252669,-79.852703,0.5578840034334575
hub_604,Cannon at Wentworth - 96,43.2559617394464,-79.8475054418754,3,hub_604,Vavo John's Bar,Bar,43.260077,-79.850198,0.506890194897925
hub_604,Cannon at Wentworth - 96,43.2559617394464,-79.8475054418754,3,hub_604,Zacks,Bar,43.256738,-79.838321,0.748772788913677
hub_605,Wentworth at King,43.25199038416551,-79.84910354018211,7,hub_605,Carlton Tavern,Karaoke Bar,43.252253,-79.849388,0.03719511414456141
hub_605,Wentworth at King,43.25199038416551,-79.84910354018211,7,hub_605,E's Sports Bar,Sports Bar,43.252516,-79.851055,0.16850572589809498
hub_605,Wentworth at King,43.25199038416551,-79.84910354018211,7,hub_605,Ed's Sports Bar,Lounge,43.252523,-79.850963,0.16182126805213834
hub_605,Wentworth at King,43.25199038416551,-79.84910354018211,7,hub_605,Jax Bar & Grill,Dive Bar,43.249934,-79.848996,0.2288253024063933
hub_605,Wentworth at King,43.25199038416551,-79.84910354018211,7,hub_605,Mosaic - Hamilton,Beer Bar,43.259543,-79.846955,0.8576478570399485
hub_605,Wentworth at King,43.25199038416551,-79.84910354018211,7,hub_605,Rebel's Rock Irish Pub,Bar,43.252669,-79.852703,0.30112121865927105
hub_605,Wentworth at King,43.25199038416551,-79.84910354018211,7,hub_605,Vavo John's Bar,Bar,43.260077,-79.850198,0.90354834052813
hub_606,Bay at Macaulay,43.27236225898336,-79.86627101898192,3,hub_606,Bar Sazerac,Night Club,43.263456,-79.865886,0.990821345005009
hub_606,Bay at Macaulay,43.27236225898336,-79.86627101898192,3,hub_606,Route 66 Diner,Bar,43.272393,-79.862434,0.3106692106088289
hub_606,Bay at Macaulay,43.27236225898336,-79.86627101898192,3,hub_606,This Ain't Hollywood,Arts and Entertainment,43.264986,-79.865634,0.8218226463668014
hub_606,Bay at Macaulay,43.27236225898336,-79.86627101898192,3,hub_606,Zyla's Music and Menu,Music Venue,43.264002,-79.86607,0.9297608539119079
hub_607,Haymarket at Hughson,43.2523698048509,-79.86883386969566,6,hub_607,Cat 'N' Fiddle,Pub,43.251502,-79.868593,0.09844760566408914
hub_607,Haymarket at Hughson,43.2523698048509,-79.86883386969566,6,hub_607,Gallagher's Bar and Lounge 69 Augusta S,Arts and Entertainment,43.251655,-79.868063,0.10107025107046337
hub_607,Haymarket at Hughson,43.2523698048509,-79.86883386969566,6,hub_607,Liquid Kitty,Night Club,43.253962,-79.867155,0.2232296651237077
hub_607,Haymarket at Hughson,43.2523698048509,-79.86883386969566,6,hub_607,Mezcal TNT,Bar,43.252188,-79.871305,0.20115064065821078
hub_607,Haymarket at Hughson,43.2523698048509,-79.86883386969566,6,hub_607,Tailgate Charlie's,Sports Bar,43.253962,-79.867155,0.2232296651237077
hub_607,Haymarket at Hughson,43.2523698048509,-79.86883386969566,6,hub_607,The Judge,Bar,43.252249,-79.869786,0.07827248070949809
hub_607,Haymarket at Hughson,43.2523698048509,-79.86883386969566,6,hub_607,The Lionshead Pub,Pub,43.252287,-79.867845,0.0806141882692147
hub_607,Haymarket at Hughson,43.2523698048509,-79.86883386969566,6,hub_607,The Pheasant Plucker,Pub,43.251875,-79.870279,0.12932607464440418
hub_607,Haymarket at Hughson,43.2523698048509,-79.86883386969566,6,hub_607,The Ship,Pub,43.252066,-79.869987,0.09931202125102707
hub_607,Haymarket at Hughson,43.2523698048509,-79.86883386969566,6,hub_607,Zen Lounge,Lounge,43.253962,-79.867155,0.2232296651237077
hub_608,James at Colbourne,43.2637774120007,-79.8660421593136,7,hub_608,Bar Sazerac,Night Club,43.263456,-79.865886,0.037910313663291006
hub_608,James at Colbourne,43.2637774120007,-79.8660421593136,7,hub_608,Hamilton Strip,Night Club,43.263017,-79.862148,0.3264628905020629
hub_608,James at Colbourne,43.2637774120007,-79.8660421593136,7,hub_608,Happy Hourz Pub,Pub,43.259965,-79.869097,0.49081489977951515
hub_608,James at Colbourne,43.2637774120007,-79.8660421593136,7,hub_608,L'étranger on James,Arts and Entertainment,43.259535,-79.868144,0.501498706898743
hub_608,James at Colbourne,43.2637774120007,-79.8660421593136,7,hub_608,Nobody's Perfect Bar and Grill,Karaoke Bar,43.263367,-79.863413,0.21772754094543698
hub_608,James at Colbourne,43.2637774120007,-79.8660421593136,7,hub_608,Saint James Espresso Bar & Eatery,Bar,43.260862,-79.866884,0.33126861637498534
hub_608,James at Colbourne,43.2637774120007,-79.8660421593136,7,hub_608,The Brain,Bar,43.261915,-79.867016,0.22159609598151075
hub_608,James at Colbourne,43.2637774120007,-79.8660421593136,7,hub_608,The Green Smoothie Bar,Bar,43.262589,-79.866249,0.13320255170964343
hub_608,James at Colbourne,43.2637774120007,-79.8660421593136,7,hub_608,This Ain't Hollywood,Arts and Entertainment,43.264986,-79.865634,0.1383930371381661
hub_608,James at Colbourne,43.2637774120007,-79.8660421593136,7,hub_608,Zyla's Music and Menu,Music Venue,43.264002,-79.86607,0.02507458990045154
hub_609,Ferguson at King,43.25400491861888,-79.86223563551903,7,hub_609,33 Bowen,Music Venue,43.253973,-79.866276,0.3272316081130846
hub_609,Ferguson at King,43.25400491861888,-79.86223563551903,7,hub_609,Black Forest Inn,Bar,43.254392,-79.861571,0.06891876222828659
hub_609,Ferguson at King,43.25400491861888,-79.86223563551903,7,hub_609,Mighty Mikes Pub & Billiards,Pool Hall,43.254333,-79.865966,0.3043005236749642
hub_609,Ferguson at King,43.25400491861888,-79.86223563551903,7,hub_609,Niza Ent,Night Club,43.253717,-79.862338,0.03307100839882957
hub_609,Ferguson at King,43.25400491861888,-79.86223563551903,7,hub_609,Sous Bas,Lounge,43.254119,-79.863658,0.11588763000463939
hub_609,Ferguson at King,43.25400491861888,-79.86223563551903,7,hub_609,TJ King Karaoke,Amusement Park,43.254514,-79.86289,0.07754192309698622
hub_609,Ferguson at King,43.25400491861888,-79.86223563551903,7,hub_609,Tailgate Charlie's,Sports Bar,43.253962,-79.867155,0.39842754236253125
hub_609,Ferguson at King,43.25400491861888,-79.86223563551903,7,hub_609,Tea Hut,Bar,43.254244,-79.865672,0.2795631696999497
hub_609,Ferguson at King,43.25400491861888,-79.86223563551903,7,hub_609,Undergound,Night Club,43.256647,-79.864966,0.36769898455293293
hub_609,Ferguson at King,43.25400491861888,-79.86223563551903,7,hub_609,Zen Lounge,Lounge,43.253962,-79.867155,0.39842754236253125
hub_610,Cannon at Birch (Powell Park),43.25504613306136,-79.84128892421722,3,hub_610,Bottoms Up,Bar,43.255851,-79.833118,0.6677382400380941
hub_610,Cannon at Birch (Powell Park),43.25504613306136,-79.84128892421722,3,hub_610,Carlton Tavern,Karaoke Bar,43.252253,-79.849388,0.7257305060802827
hub_610,Cannon at Birch (Powell Park),43.25504613306136,-79.84128892421722,3,hub_610,Galley Pump,Pub,43.262919,-79.84451,0.9134565034077969
hub_610,Cannon at Birch (Powell Park),43.25504613306136,-79.84128892421722,3,hub_610,MaiPai Tiki Bar,Tiki Bar,43.257164,-79.837883,0.362679223348624
hub_610,Cannon at Birch (Powell Park),43.25504613306136,-79.84128892421722,3,hub_610,Mosaic - Hamilton,Beer Bar,43.259543,-79.846955,0.6786526506668392
hub_610,Cannon at Birch (Powell Park),43.25504613306136,-79.84128892421722,3,hub_610,Prince Edward Tavern,Dive Bar,43.255851,-79.833118,0.6677382400380941
hub_610,Cannon at Birch (Powell Park),43.25504613306136,-79.84128892421722,3,hub_610,Sam's,Bar,43.256863,-79.838157,0.3242599947209093
hub_610,Cannon at Birch (Powell Park),43.25504613306136,-79.84128892421722,3,hub_610,The Capitol Bar,Bar,43.251372,-79.835377,0.6294023088767053
hub_610,Cannon at Birch (Powell Park),43.25504613306136,-79.84128892421722,3,hub_610,Wingporium | Prince Eddy Sports Bar,Bar,43.255851,-79.833118,0.6677382400380941
hub_610,Cannon at Birch (Powell Park),43.25504613306136,-79.84128892421722,3,hub_610,Zacks,Bar,43.256738,-79.838321,0.3052229229624936
hub_611,Cannon at Sherman,43.2533992835566,-79.8374917817979,4,hub_611,Bottoms Up,Bar,43.255851,-79.833118,0.4469743397616951
hub_611,Cannon at Sherman,43.2533992835566,-79.8374917817979,4,hub_611,Carlton Tavern,Karaoke Bar,43.252253,-79.849388,0.9718385504846092
hub_611,Cannon at Sherman,43.2533992835566,-79.8374917817979,4,hub_611,Hamilton Specialty Bar,Lounge,43.261754,-79.835642,0.9410016515382811
hub_611,Cannon at Sherman,43.2533992835566,-79.8374917817979,4,hub_611,MaiPai Tiki Bar,Tiki Bar,43.257164,-79.837883,0.4198145782807213
hub_611,Cannon at Sherman,43.2533992835566,-79.8374917817979,4,hub_611,Prince Edward Tavern,Dive Bar,43.255851,-79.833118,0.4469743397616951
hub_611,Cannon at Sherman,43.2533992835566,-79.8374917817979,4,hub_611,Sam's,Bar,43.256863,-79.838157,0.38889711646687447
hub_611,Cannon at Sherman,43.2533992835566,-79.8374917817979,4,hub_611,The Capitol Bar,Bar,43.251372,-79.835377,0.28310755753843664
hub_611,Cannon at Sherman,43.2533992835566,-79.8374917817979,4,hub_611,Wingporium | Prince Eddy Sports Bar,Bar,43.255851,-79.833118,0.4469743397616951
hub_611,Cannon at Sherman,43.2533992835566,-79.8374917817979,4,hub_611,Zacks,Bar,43.256738,-79.838321,0.3772730429593226
hub_612,Delaware at Myrtle,43.2480454302898,-79.8495236914621,0,hub_612,Carlton Tavern,Karaoke Bar,43.252253,-79.849388,0.4679894594162241
hub_612,Delaware at Myrtle,43.2480454302898,-79.8495236914621,0,hub_612,E's Sports Bar,Sports Bar,43.252516,-79.851055,0.5123421513921962
hub_612,Delaware at Myrtle,43.2480454302898,-79.8495236914621,0,hub_612,Ed's Sports Bar,Lounge,43.252523,-79.850963,0.5113474841566642
hub_612,Delaware at Myrtle,43.2480454302898,-79.8495236914621,0,hub_612,Ideal Vapes,Lounge,43.241421,-79.852798,0.7828933233373979
hub_612,Delaware at Myrtle,43.2480454302898,-79.8495236914621,0,hub_612,Jax Bar & Grill,Dive Bar,43.249934,-79.848996,0.21430436771282782
hub_612,Delaware at Myrtle,43.2480454302898,-79.8495236914621,0,hub_612,Rebel's Rock Irish Pub,Bar,43.252669,-79.852703,0.5749957795312571
hub_612,Delaware at Myrtle,43.2480454302898,-79.8495236914621,0,hub_612,Stoneroads Bar & Grill,Bar,43.241259,-79.852724,0.7978978392153011
hub_613,Maplewood at Springer,43.245150946389735,-79.83708053827286,6,hub_613,The Capitol Bar,Bar,43.251372,-79.835377,0.7053756020796818
hub_613,Maplewood at Springer,43.245150946389735,-79.83708053827286,6,hub_613,Your Neighbourhood Bar and Grill,Pub,43.238206,-79.842244,0.8782332116791814
hub_614,Gage Park,43.24344818701565,-79.83040988445282,1,hub_614,Buddys Roadhouse,Bar,43.240965,-79.822316,0.7113892074186888
hub_614,Gage Park,43.24344818701565,-79.83040988445282,1,hub_614,Faces Cafe & Bar,Bar,43.243401,-79.822633,0.6299487119050511
hub_614,Gage Park,43.24344818701565,-79.83040988445282,1,hub_614,Osten Beerhall,Beer Bar,43.248569,-79.821601,0.9128481690704476
hub_614,Gage Park,43.24344818701565,-79.83040988445282,1,hub_614,The Capitol Bar,Bar,43.251372,-79.835377,0.9685910807181427
hub_622,McMaster Emerson,43.258038792898375,-79.91978779435158,5,hub_622,Emerson 109,Bar,43.25446,-79.92079,0.406135818750487
hub_622,McMaster Emerson,43.258038792898375,-79.91978779435158,5,hub_622,Kookaburra Restaurant,Bar,43.258372,-79.910003,0.7932408057356469
hub_622,McMaster Emerson,43.258038792898375,-79.91978779435158,5,hub_622,Phoenix Bar & Grill,Bar,43.262878,-79.921158,0.5494157333881683
hub_622,McMaster Emerson,43.258038792898375,-79.91978779435158,5,hub_622,TwelvEighty Bar & Grill,Lounge,43.258546,-79.919307,0.06853282988132318
hub_622,McMaster Emerson,43.258038792898375,-79.91978779435158,5,hub_622,Williams Coffee Pub,Bar,43.257365,-79.917947,0.16683820921078368
hub_623,McMaster Arthur Bourns,43.2599690032886,-79.922358671032,7,hub_623,Emerson 109,Bar,43.25446,-79.92079,0.6256064563564363
hub_623,McMaster Arthur Bourns,43.2599690032886,-79.922358671032,7,hub_623,Phoenix Bar & Grill,Bar,43.262878,-79.921158,0.337761514048621
hub_623,McMaster Arthur Bourns,43.2599690032886,-79.922358671032,7,hub_623,TwelvEighty Bar & Grill,Lounge,43.258546,-79.919307,0.2934376546832538
hub_623,McMaster Arthur Bourns,43.2599690032886,-79.922358671032,7,hub_623,Williams Coffee Pub,Bar,43.257365,-79.917947,0.4598606530422042
hub_624,McMaster Health Sciences,43.26053126154136,-79.91824820637703,6,hub_624,Emerson 109,Bar,43.25446,-79.92079,0.7057763615036952
hub_624,McMaster Health Sciences,43.26053126154136,-79.91824820637703,6,hub_624,Kookaburra Restaurant,Bar,43.258372,-79.910003,0.7095427912136636
hub_624,McMaster Health Sciences,43.26053126154136,-79.91824820637703,6,hub_624,Phoenix Bar & Grill,Bar,43.262878,-79.921158,0.3515826439665756
hub_624,McMaster Health Sciences,43.26053126154136,-79.91824820637703,6,hub_624,TwelvEighty Bar & Grill,Lounge,43.258546,-79.919307,0.23681695266069414
hub_624,McMaster Health Sciences,43.26053126154136,-79.91824820637703,6,hub_624,Williams Coffee Pub,Bar,43.257365,-79.917947,0.3529161256073161
hub_625,McMaster Mary Keyes,43.26246012002058,-79.92224670946598,14,hub_625,Emerson 109,Bar,43.25446,-79.92079,0.8973601532330711
hub_625,McMaster Mary Keyes,43.26246012002058,-79.92224670946598,14,hub_625,Phoenix Bar & Grill,Bar,43.262878,-79.921158,0.09965362813567419
hub_625,McMaster Mary Keyes,43.26246012002058,-79.92224670946598,14,hub_625,TwelvEighty Bar & Grill,Lounge,43.258546,-79.919307,0.4960775391546405
hub_625,McMaster Mary Keyes,43.26246012002058,-79.92224670946598,14,hub_625,Williams Coffee Pub,Bar,43.257365,-79.917947,0.6649895771898087
hub_626,McMaster Stadium,43.26462232214244,-79.91868138313293,4,hub_626,Kookaburra Restaurant,Bar,43.258372,-79.910003,0.9883691881817981
hub_626,McMaster Stadium,43.26462232214244,-79.91868138313293,4,hub_626,Phoenix Bar & Grill,Bar,43.262878,-79.921158,0.2789913868382462
hub_626,McMaster Stadium,43.26462232214244,-79.91868138313293,4,hub_626,TwelvEighty Bar & Grill,Lounge,43.258546,-79.919307,0.6775527349100717
hub_626,McMaster Stadium,43.26462232214244,-79.91868138313293,4,hub_626,Williams Coffee Pub,Bar,43.257365,-79.917947,0.809165588051555
hub_631,Hunter GO Centre,43.25343546641674,-79.86948698759079,6,hub_631,Gallagher's Bar and Lounge 69 Augusta S,Arts and Entertainment,43.251655,-79.868063,0.22911920060405674
hub_631,Hunter GO Centre,43.25343546641674,-79.86948698759079,6,hub_631,Hamilton Club,Night Club,43.255183,-79.869448,0.19434251919091874
hub_631,Hunter GO Centre,43.25343546641674,-79.86948698759079,6,hub_631,Liquid Kitty,Night Club,43.253962,-79.867155,0.19772591427243136
hub_631,Hunter GO Centre,43.25343546641674,-79.86948698759079,6,hub_631,Mezcal TNT,Bar,43.252188,-79.871305,0.2022856381440524
hub_631,Hunter GO Centre,43.25343546641674,-79.86948698759079,6,hub_631,Tailgate Charlie's,Sports Bar,43.253962,-79.867155,0.19772591427243136
hub_631,Hunter GO Centre,43.25343546641674,-79.86948698759079,6,hub_631,The Judge,Bar,43.252249,-79.869786,0.13413313928715478
hub_631,Hunter GO Centre,43.25343546641674,-79.86948698759079,6,hub_631,The Lionshead Pub,Pub,43.252287,-79.867845,0.18436908651869485
hub_631,Hunter GO Centre,43.25343546641674,-79.86948698759079,6,hub_631,The Pheasant Plucker,Pub,43.251875,-79.870279,0.18499225701469968
hub_631,Hunter GO Centre,43.25343546641674,-79.86948698759079,6,hub_631,The Ship,Pub,43.252066,-79.869987,0.15757007473584028
hub_631,Hunter GO Centre,43.25343546641674,-79.86948698759079,6,hub_631,Zen Lounge,Lounge,43.253962,-79.867155,0.19772591427243136
hub_707,McMaster Student Centre,43.26274333966465,-79.91714715957642,1,hub_707,Emerson 109,Bar,43.25446,-79.92079,0.9671525852466517
hub_707,McMaster Student Centre,43.26274333966465,-79.91714715957642,1,hub_707,Kookaburra Restaurant,Bar,43.258372,-79.910003,0.7556074480290621
hub_707,McMaster Student Centre,43.26274333966465,-79.91714715957642,1,hub_707,Phoenix Bar & Grill,Bar,43.262878,-79.921158,0.32511926259048723
hub_707,McMaster Student Centre,43.26274333966465,-79.91714715957642,1,hub_707,Snooty Fox,Pub,43.261816,-79.905256,0.9683901611665253
hub_707,McMaster Student Centre,43.26274333966465,-79.91714715957642,1,hub_707,TwelvEighty Bar & Grill,Lounge,43.258546,-79.919307,0.4984168367938227
hub_707,McMaster Student Centre,43.26274333966465,-79.91714715957642,1,hub_707,Williams Coffee Pub,Bar,43.257365,-79.917947,0.6015411790034739
hub_708,York at Macnab,43.25901059433612,-79.86919194459914,7,hub_708,B Me,Bar,43.259542,-79.868052,0.10960370110123382
hub_708,York at Macnab,43.25901059433612,-79.86919194459914,7,hub_708,Club Absinthe,Night Club,43.256943,-79.867659,0.2612798970435801
hub_708,York at Macnab,43.25901059433612,-79.86919194459914,7,hub_708,Happy Hourz Pub,Pub,43.259965,-79.869097,0.10640320793628154
hub_708,York at Macnab,43.25901059433612,-79.86919194459914,7,hub_708,K Point Karaoke & Bar,Arts and Entertainment,43.258247,-79.868158,0.11924680160297858
hub_708,York at Macnab,43.25901059433612,-79.86919194459914,7,hub_708,L'étranger on James,Arts and Entertainment,43.259535,-79.868144,0.10296429394202315
hub_708,York at Macnab,43.25901059433612,-79.86919194459914,7,hub_708,LOFT Lounge,Night Club,43.257617,-79.871251,0.2276309720939905
hub_708,York at Macnab,43.25901059433612,-79.86919194459914,7,hub_708,Merit Brewing,Bar,43.25949,-79.867997,0.11047714643210363
hub_708,York at Macnab,43.25901059433612,-79.86919194459914,7,hub_708,Saint James Espresso Bar & Eatery,Bar,43.260862,-79.866884,0.27804681870706865
hub_708,York at Macnab,43.25901059433612,-79.86919194459914,7,hub_708,The French,Wine Bar,43.257347,-79.867496,0.23039216111665559
hub_708,York at Macnab,43.25901059433612,-79.86919194459914,7,hub_708,Undefined,Bar,43.257392,-79.867642,0.2194233422068362
hub_709,Park at Robinson,43.2515957745917,-79.8749090863127,5,hub_709,Cat 'N' Fiddle,Pub,43.251502,-79.868593,0.5116403914262777
hub_709,Park at Robinson,43.2515957745917,-79.8749090863127,5,hub_709,Gallagher's Bar and Lounge 69 Augusta S,Arts and Entertainment,43.251655,-79.868063,0.5544967598366114
hub_709,Park at Robinson,43.2515957745917,-79.8749090863127,5,hub_709,Hamilton Club,Night Club,43.255183,-79.869448,0.5955783011519312
hub_709,Park at Robinson,43.2515957745917,-79.8749090863127,5,hub_709,M Bar,Night Club,43.251849,-79.871341,0.2903438337894111
hub_709,Park at Robinson,43.2515957745917,-79.8749090863127,5,hub_709,Mezcal TNT,Bar,43.252188,-79.871305,0.29922625034772043
hub_709,Park at Robinson,43.2515957745917,-79.8749090863127,5,hub_709,Odds Bar,Sports Bar,43.251849,-79.871341,0.2903438337894111
hub_709,Park at Robinson,43.2515957745917,-79.8749090863127,5,hub_709,The Judge,Bar,43.252249,-79.869786,0.4212214633303733
hub_709,Park at Robinson,43.2515957745917,-79.8749090863127,5,hub_709,The Lionshead Pub,Pub,43.252287,-79.867845,0.5772501649609267
hub_709,Park at Robinson,43.2515957745917,-79.8749090863127,5,hub_709,The Pheasant Plucker,Pub,43.251875,-79.870279,0.3762685569398004
hub_709,Park at Robinson,43.2515957745917,-79.8749090863127,5,hub_709,The Ship,Pub,43.252066,-79.869987,0.40204794226923973
hub_712,West at Cannon,43.257877862291,-79.8561337635964,3,hub_712,Black Forest Inn,Bar,43.254392,-79.861571,0.5866230767355284
hub_712,West at Cannon,43.257877862291,-79.8561337635964,3,hub_712,E's Sports Bar,Sports Bar,43.252516,-79.851055,0.7243177255152522
hub_712,West at Cannon,43.257877862291,-79.8561337635964,3,hub_712,Ed's Sports Bar,Lounge,43.252523,-79.850963,0.7279374589063619
hub_712,West at Cannon,43.257877862291,-79.8561337635964,3,hub_712,Fragoso Seafood Place,Bar,43.261057,-79.852728,0.44836069864728006
hub_712,West at Cannon,43.257877862291,-79.8561337635964,3,hub_712,Hamilton Strip,Night Club,43.263017,-79.862148,0.7508232495835804
hub_712,West at Cannon,43.257877862291,-79.8561337635964,3,hub_712,Niza Ent,Night Club,43.253717,-79.862338,0.6830131420524462
hub_712,West at Cannon,43.257877862291,-79.8561337635964,3,hub_712,Rebel's Rock Irish Pub,Bar,43.252669,-79.852703,0.6423902252222844
hub_712,West at Cannon,43.257877862291,-79.8561337635964,3,hub_712,TJ King Karaoke,Amusement Park,43.254514,-79.86289,0.6627753125646573
hub_712,West at Cannon,43.257877862291,-79.8561337635964,3,hub_712,Undergound,Night Club,43.256647,-79.864966,0.72822492026968
hub_712,West at Cannon,43.257877862291,-79.8561337635964,3,hub_712,Vavo John's Bar,Bar,43.260077,-79.850198,0.5392989651336914
hub_778,Aberdeen at Studholme,43.2526283084979,-79.899692892407,12,hub_778,Ray's Place,Pub,43.252556,-79.891906,0.6306938333300262
hub_779,Hunter at Park,43.2543192007999,-79.8733946157064,3,hub_779,Anchor Bar,Lounge,43.257946,-79.87279,0.40624320272369707
hub_779,Hunter at Park,43.2543192007999,-79.8733946157064,3,hub_779,Hamilton Club,Night Club,43.255183,-79.869448,0.3337364675860938
hub_779,Hunter at Park,43.2543192007999,-79.8733946157064,3,hub_779,LOFT Lounge,Night Club,43.257617,-79.871251,0.4057138201553214
hub_779,Hunter at Park,43.2543192007999,-79.8733946157064,3,hub_779,M Bar,Night Club,43.251849,-79.871341,0.3211024798489046
hub_779,Hunter at Park,43.2543192007999,-79.8733946157064,3,hub_779,Mezcal TNT,Bar,43.252188,-79.871305,0.29120124069948616
hub_779,Hunter at Park,43.2543192007999,-79.8733946157064,3,hub_779,Odds Bar,Sports Bar,43.251849,-79.871341,0.3211024798489046
hub_779,Hunter at Park,43.2543192007999,-79.8733946157064,3,hub_779,The Judge,Bar,43.252249,-79.869786,0.3720219050856221
hub_779,Hunter at Park,43.2543192007999,-79.8733946157064,3,hub_779,The Pheasant Plucker,Pub,43.251875,-79.870279,0.37085509129020744
hub_779,Hunter at Park,43.2543192007999,-79.8733946157064,3,hub_779,Yuk Yuk's Comedy Cabaret,Comedy Club,43.258263,-79.873029,0.43952887821301145
hub_779,Hunter at Park,43.2543192007999,-79.8733946157064,3,hub_779,Yuk Yuk's Comedy Club,Comedy Club,43.258263,-79.873029,0.43952887821301145
hub_780,John at Main,43.254529435061336,-79.86718028783798,11,hub_780,33 Bowen,Music Venue,43.253973,-79.866276,0.0958722420524671
hub_780,John at Main,43.254529435061336,-79.86718028783798,11,hub_780,Hamilton Club,Night Club,43.255183,-79.869448,0.1975061966140237
hub_780,John at Main,43.254529435061336,-79.86718028783798,11,hub_780,Liquid Kitty,Night Club,43.253962,-79.867155,0.06312912713060623
hub_780,John at Main,43.254529435061336,-79.86718028783798,11,hub_780,Mighty Mikes Pub & Billiards,Pool Hall,43.254333,-79.865966,0.10073599222505697
hub_780,John at Main,43.254529435061336,-79.86718028783798,11,hub_780,Sous Bas,Lounge,43.254119,-79.863658,0.28888171984342126
hub_780,John at Main,43.254529435061336,-79.86718028783798,11,hub_780,Tailgate Charlie's,Sports Bar,43.253962,-79.867155,0.06312912713060623
hub_780,John at Main,43.254529435061336,-79.86718028783798,11,hub_780,Tea Hut,Bar,43.254244,-79.865672,0.12620531439829152
hub_780,John at Main,43.254529435061336,-79.86718028783798,11,hub_780,The Lionshead Pub,Pub,43.252287,-79.867845,0.25509232972736917
hub_780,John at Main,43.254529435061336,-79.86718028783798,11,hub_780,Undergound,Night Club,43.256647,-79.864966,0.29597077433406904
hub_780,John at Main,43.254529435061336,-79.86718028783798,11,hub_780,Zen Lounge,Lounge,43.253962,-79.867155,0.06312912713060623
hub_802,Hess at king,43.259125842121065,-79.87721174955368,2,hub_802,Elixir Lounge & Nightclub,Night Club,43.258514,-79.877755,0.08101787144492739
hub_802,Hess at king,43.259125842121065,-79.87721174955368,2,hub_802,Gown & Gavel,Bar,43.258338,-79.877864,0.10229520940711696
hub_802,Hess at king,43.259125842121065,-79.87721174955368,2,hub_802,Lazy Flamingo,Bar,43.258432,-79.87737,0.07820878279786009
hub_802,Hess at king,43.259125842121065,-79.87721174955368,2,hub_802,Side Bar,Lounge,43.258331,-79.877956,0.10697574908867122
hub_802,Hess at king,43.259125842121065,-79.87721174955368,2,hub_802,Sizzle Steak House & Lounge,Lounge,43.258263,-79.877388,0.0969994679543338
hub_802,Hess at king,43.259125842121065,-79.87721174955368,2,hub_802,Ten Decades,Bar,43.258051,-79.877955,0.13381679058250154
hub_802,Hess at king,43.259125842121065,-79.87721174955368,2,hub_802,The Masque Wine Jazz Bar,Jazz and Blues Venue,43.258432,-79.87737,0.07820878279786009
hub_802,Hess at king,43.259125842121065,-79.87721174955368,2,hub_802,The Standard Lounge,Night Club,43.258204,-79.877424,0.10393522185824616
hub_802,Hess at king,43.259125842121065,-79.87721174955368,2,hub_802,The Strathcona,Wine Bar,43.25959,-79.878308,0.10268610007172542
hub_802,Hess at king,43.259125842121065,-79.87721174955368,2,hub_802,Vip Saturdays,Night Club,43.258051,-79.877955,0.13381679058250154
hub_830,Rifle Range at Rail Trail,43.2554850097816,-79.9298771288198,7,hub_830,Emerson 109,Bar,43.25446,-79.92079,0.744690748224412
hub_830,Rifle Range at Rail Trail,43.2554850097816,-79.9298771288198,7,hub_830,The Wee Dram,Pub,43.252487,-79.939,0.8105500713778866
hub_830,Rifle Range at Rail Trail,43.2554850097816,-79.9298771288198,7,hub_830,TwelvEighty Bar & Grill,Lounge,43.258546,-79.919307,0.9211761260855565
hub_830,Rifle Range at Rail Trail,43.2554850097816,-79.9298771288198,7,hub_830,Williams Coffee Pub,Bar,43.257365,-79.917947,0.9884902312786442
hub_866,Augusta at John,43.25163232878042,-79.86898005008698,4,hub_866,Cat 'N' Fiddle,Pub,43.251502,-79.868593,0.034534602097777006
hub_866,Augusta at John,43.25163232878042,-79.86898005008698,4,hub_866,Gallagher's Bar and Lounge 69 Augusta S,Arts and Entertainment,43.251655,-79.868063,0.07431371342440268
hub_866,Augusta at John,43.25163232878042,-79.86898005008698,4,hub_866,Liquid Kitty,Night Club,43.253962,-79.867155,0.2982487574687163
hub_866,Augusta at John,43.25163232878042,-79.86898005008698,4,hub_866,M Bar,Night Club,43.251849,-79.871341,0.19272247763303438
hub_866,Augusta at John,43.25163232878042,-79.86898005008698,4,hub_866,Mezcal TNT,Bar,43.252188,-79.871305,0.19817301726943604
hub_866,Augusta at John,43.25163232878042,-79.86898005008698,4,hub_866,Odds Bar,Sports Bar,43.251849,-79.871341,0.19272247763303438
hub_866,Augusta at John,43.25163232878042,-79.86898005008698,4,hub_866,The Judge,Bar,43.252249,-79.869786,0.09467033558355818
hub_866,Augusta at John,43.25163232878042,-79.86898005008698,4,hub_866,The Lionshead Pub,Pub,43.252287,-79.867845,0.11725901077433137
hub_866,Augusta at John,43.25163232878042,-79.86898005008698,4,hub_866,The Pheasant Plucker,Pub,43.251875,-79.870279,0.10860596525989434
hub_866,Augusta at John,43.25163232878042,-79.86898005008698,4,hub_866,The Ship,Pub,43.252066,-79.869987,0.09474187223379402
hub_867,Queen at George,43.25812181171754,-79.8793575167656,3,hub_867,Absinthe Lounge,Bar,43.258547,-79.87878,0.06650163938390405
hub_867,Queen at George,43.25812181171754,-79.8793575167656,3,hub_867,Arcade,Arcade,43.258171,-79.878578,0.06336202734496622
hub_867,Queen at George,43.25812181171754,-79.8793575167656,3,hub_867,Bourbon & Brass Speakeasy,Music Venue,43.258051,-79.877955,0.11384898244349402
hub_867,Queen at George,43.25812181171754,-79.8793575167656,3,hub_867,Doors Pub & Pizzeria,Pub,43.257353,-79.8783,0.12100481708800749
hub_867,Queen at George,43.25812181171754,-79.8793575167656,3,hub_867,Gown & Gavel,Bar,43.258338,-79.877864,0.12331115967878829
hub_867,Queen at George,43.25812181171754,-79.8793575167656,3,hub_867,Moodys,Bar,43.258164,-79.878669,0.05595331189145353
hub_867,Queen at George,43.25812181171754,-79.8793575167656,3,hub_867,Side Bar,Lounge,43.258331,-79.877956,0.11585423549297184
hub_867,Queen at George,43.25812181171754,-79.8793575167656,3,hub_867,Ten Decades,Bar,43.258051,-79.877955,0.11384898244349402
hub_867,Queen at George,43.25812181171754,-79.8793575167656,3,hub_867,Vip Saturdays,Night Club,43.258051,-79.877955,0.11384898244349402
hub_867,Queen at George,43.25812181171754,-79.8793575167656,3,hub_867,Viva Night Club,Night Club,43.25826,-79.878871,0.04228866864163546
hub_894,Forsyth at Sterling,43.26271404114188,-79.91580605506897,4,hub_894,Kookaburra Restaurant,Bar,43.258372,-79.910003,0.6737419674534972
hub_894,Forsyth at Sterling,43.26271404114188,-79.91580605506897,4,hub_894,Phoenix Bar & Grill,Bar,43.262878,-79.921158,0.43375245156801845
hub_894,Forsyth at Sterling,43.26271404114188,-79.91580605506897,4,hub_894,Snooty Fox,Pub,43.261816,-79.905256,0.8601054418116892
hub_894,Forsyth at Sterling,43.26271404114188,-79.91580605506897,4,hub_894,TwelvEighty Bar & Grill,Lounge,43.258546,-79.919307,0.5432953750976351
hub_894,Forsyth at Sterling,43.26271404114188,-79.91580605506897,4,hub_894,Williams Coffee Pub,Bar,43.257365,-79.917947,0.6195381229779479
hub_903,Duke at James,43.25163037518954,-79.87135380506516,2,hub_903,Cat 'N' Fiddle,Pub,43.251502,-79.868593,0.2240502411163102
hub_903,Duke at James,43.25163037518954,-79.87135380506516,2,hub_903,Gallagher's Bar and Lounge 69 Augusta S,Arts and Entertainment,43.251655,-79.868063,0.2665329850463094
hub_903,Duke at James,43.25163037518954,-79.87135380506516,2,hub_903,Liquid Kitty,Night Club,43.253962,-79.867155,0.427612653718011
hub_903,Duke at James,43.25163037518954,-79.87135380506516,2,hub_903,M Bar,Night Club,43.251849,-79.871341,0.02433208044212348
hub_903,Duke at James,43.25163037518954,-79.87135380506516,2,hub_903,Mezcal TNT,Bar,43.252188,-79.871305,0.06213090770295369
hub_903,Duke at James,43.25163037518954,-79.87135380506516,2,hub_903,Odds Bar,Sports Bar,43.251849,-79.871341,0.02433208044212348
hub_903,Duke at James,43.25163037518954,-79.87135380506516,2,hub_903,The Judge,Bar,43.252249,-79.869786,0.14441002046785756
hub_903,Duke at James,43.25163037518954,-79.87135380506516,2,hub_903,The Lionshead Pub,Pub,43.252287,-79.867845,0.2934029078597372
hub_903,Duke at James,43.25163037518954,-79.87135380506516,2,hub_903,The Pheasant Plucker,Pub,43.251875,-79.870279,0.09119819921196569
hub_903,Duke at James,43.25163037518954,-79.87135380506516,2,hub_903,The Ship,Pub,43.252066,-79.869987,0.12083010761742785
hub_904,King William at Hughson,43.2569048421661,-79.86643463373184,5,hub_904,B Me,Bar,43.259542,-79.868052,0.3211591912506819
hub_904,King William at Hughson,43.2569048421661,-79.86643463373184,5,hub_904,Club Absinthe,Night Club,43.256943,-79.867659,0.09924230873794315
hub_904,King William at Hughson,43.2569048421661,-79.86643463373184,5,hub_904,Hamilton Club,Night Club,43.255183,-79.869448,0.31017494142428564
hub_904,King William at Hughson,43.2569048421661,-79.86643463373184,5,hub_904,K Point Karaoke & Bar,Arts and Entertainment,43.258247,-79.868158,0.2043279963602624
hub_904,King William at Hughson,43.2569048421661,-79.86643463373184,5,hub_904,Merit Brewing,Bar,43.25949,-79.867997,0.3140680182757306
hub_904,King William at Hughson,43.2569048421661,-79.86643463373184,5,hub_904,Mighty Mikes Pub & Billiards,Pool Hall,43.254333,-79.865966,0.28848308312053944
hub_904,King William at Hughson,43.2569048421661,-79.86643463373184,5,hub_904,Tea Hut,Bar,43.254244,-79.865672,0.30224946960232113
hub_904,King William at Hughson,43.2569048421661,-79.86643463373184,5,hub_904,The French,Wine Bar,43.257347,-79.867496,0.0990195925183083
hub_904,King William at Hughson,43.2569048421661,-79.86643463373184,5,hub_904,Undefined,Bar,43.257392,-79.867642,0.11177740338094401
hub_904,King William at Hughson,43.2569048421661,-79.86643463373184,5,hub_904,Undergound,Night Club,43.256647,-79.864966,0.1223400843789924
hub_905,Tisdale at Main,43.25191559879094,-79.85307991504669,6,hub_905,Black Forest Inn,Bar,43.254392,-79.861571,0.7407503426076265
hub_905,Tisdale at Main,43.25191559879094,-79.85307991504669,6,hub_905,Carlton Tavern,Karaoke Bar,43.252253,-79.849388,0.3013467863742779
hub_905,Tisdale at Main,43.25191559879094,-79.85307991504669,6,hub_905,Corktown Tavern,Pub,43.249707,-79.864303,0.9415506238245966
hub_905,Tisdale at Main,43.25191559879094,-79.85307991504669,6,hub_905,E's Sports Bar,Sports Bar,43.252516,-79.851055,0.17706275569007654
hub_905,Tisdale at Main,43.25191559879094,-79.85307991504669,6,hub_905,Ed's Sports Bar,Lounge,43.252523,-79.850963,0.18426904840709227
hub_905,Tisdale at Main,43.25191559879094,-79.85307991504669,6,hub_905,Jax Bar & Grill,Dive Bar,43.249934,-79.848996,0.397430344885821
hub_905,Tisdale at Main,43.25191559879094,-79.85307991504669,6,hub_905,Niza Ent,Night Club,43.253717,-79.862338,0.7760833151136226
hub_905,Tisdale at Main,43.25191559879094,-79.85307991504669,6,hub_905,Rebel's Rock Irish Pub,Bar,43.252669,-79.852703,0.08916256656227345
hub_905,Tisdale at Main,43.25191559879094,-79.85307991504669,6,hub_905,Sous Bas,Lounge,43.254119,-79.863658,0.8910355229965522
hub_905,Tisdale at Main,43.25191559879094,-79.85307991504669,6,hub_905,TJ King Karaoke,Amusement Park,43.254514,-79.86289,0.8453942664046672
hub_921,Frid at Main,43.25940517059312,-79.89262372255325,5,hub_921,Mark's Chinese Food & Tavern,Bar,43.260901,-79.883074,0.7909993436493702
hub_921,Frid at Main,43.25940517059312,-79.89262372255325,5,hub_921,Ray's Place,Pub,43.252556,-79.891906,0.7638077432184771
hub_921,Frid at Main,43.25940517059312,-79.89262372255325,5,hub_921,West Town Bar & Grill,Bar,43.254502,-79.886256,0.7504447480759132
hub_924,James at Guise,43.27365898786445,-79.86182928085327,1,hub_924,Route 66 Diner,Bar,43.272393,-79.862434,0.14904200135207832
hub_945,Stadium,43.25161474646046,-79.83134329318999,1,hub_945,Barton Touchdown Pub,Night Club,43.25346,-79.824927,0.5586833933895905
hub_945,Stadium,43.25161474646046,-79.83134329318999,1,hub_945,Bottoms Up,Bar,43.255851,-79.833118,0.4924889721642238
hub_945,Stadium,43.25161474646046,-79.83134329318999,1,hub_945,MaiPai Tiki Bar,Tiki Bar,43.257164,-79.837883,0.8131708770124242
hub_945,Stadium,43.25161474646046,-79.83134329318999,1,hub_945,Osten Beerhall,Beer Bar,43.248569,-79.821601,0.8586501159449593
hub_945,Stadium,43.25161474646046,-79.83134329318999,1,hub_945,Prince Edward Tavern,Dive Bar,43.255851,-79.833118,0.4924889721642238
hub_945,Stadium,43.25161474646046,-79.83134329318999,1,hub_945,Sam's,Bar,43.256863,-79.838157,0.8031566916754884
hub_945,Stadium,43.25161474646046,-79.83134329318999,1,hub_945,The Capitol Bar,Bar,43.251372,-79.835377,0.3277997745304286
hub_945,Stadium,43.25161474646046,-79.83134329318999,1,hub_945,Wingporium | Prince Eddy Sports Bar,Bar,43.255851,-79.833118,0.4924889721642238
hub_945,Stadium,43.25161474646046,-79.83134329318999,1,hub_945,Zacks,Bar,43.256738,-79.838321,0.8024126553660056
hub_959,West Harbour GO Station,43.26624929442286,-79.86611008644103,6,hub_959,Bar Sazerac,Night Club,43.263456,-79.865886,0.3111297011178772
hub_959,West Harbour GO Station,43.26624929442286,-79.86611008644103,6,hub_959,Hamilton Strip,Night Club,43.263017,-79.862148,0.4817700819469891
hub_959,West Harbour GO Station,43.26624929442286,-79.86611008644103,6,hub_959,Happy Hourz Pub,Pub,43.259965,-79.869097,0.739454392297835
hub_959,West Harbour GO Station,43.26624929442286,-79.86611008644103,6,hub_959,Nobody's Perfect Bar and Grill,Karaoke Bar,43.263367,-79.863413,0.38782845962453005
hub_959,West Harbour GO Station,43.26624929442286,-79.86611008644103,6,hub_959,Route 66 Diner,Bar,43.272393,-79.862434,0.7451708612802455
hub_959,West Harbour GO Station,43.26624929442286,-79.86611008644103,6,hub_959,Saint James Espresso Bar & Eatery,Bar,43.260862,-79.866884,0.6023086788801012
hub_959,West Harbour GO Station,43.26624929442286,-79.86611008644103,6,hub_959,The Brain,Bar,43.261915,-79.867016,0.48750190697009066
hub_959,West Harbour GO Station,43.26624929442286,-79.86611008644103,6,hub_959,The Green Smoothie Bar,Bar,43.262589,-79.866249,0.407161567661983
hub_959,West Harbour GO Station,43.26624929442286,-79.86611008644103,6,hub_959,This Ain't Hollywood,Arts and Entertainment,43.264986,-79.865634,0.14566530549568968
hub_959,West Harbour GO Station,43.26624929442286,-79.86611008644103,6,hub_959,Zyla's Music and Menu,Music Venue,43.264002,-79.86607,0.24990881804153228
hub_960,Pier 4,43.27260051521549,-79.86689731478691,6,hub_960,Route 66 Diner,Bar,43.272393,-79.862434,0.3620914539549987
hub_960,Pier 4,43.27260051521549,-79.86689731478691,6,hub_960,This Ain't Hollywood,Arts and Entertainment,43.264986,-79.865634,0.852851439519886
hub_960,Pier 4,43.27260051521549,-79.86689731478691,6,hub_960,Zyla's Music and Menu,Music Venue,43.264002,-79.86607,0.9584548785247652
hub_1042,Van Wagners,43.26000777328068,-79.7663875669241,4,hub_1042,Baranga's on the Beach,Bar,43.255606,-79.761679,0.6204501086284764
hub_1063,Main and Wellington,43.25281814686537,-79.86008584499359,9,hub_1063,33 Bowen,Music Venue,43.253973,-79.866276,0.5175052759953656
hub_1063,Main and Wellington,43.25281814686537,-79.86008584499359,9,hub_1063,Black Forest Inn,Bar,43.254392,-79.861571,0.21235159217478994
hub_1063,Main and Wellington,43.25281814686537,-79.86008584499359,9,hub_1063,Corktown Tavern,Pub,43.249707,-79.864303,0.48613803289665447
hub_1063,Main and Wellington,43.25281814686537,-79.86008584499359,9,hub_1063,Mighty Mikes Pub & Billiards,Pool Hall,43.254333,-79.865966,0.5051255407528845
hub_1063,Main and Wellington,43.25281814686537,-79.86008584499359,9,hub_1063,Niza Ent,Night Club,43.253717,-79.862338,0.2079842943171252
hub_1063,Main and Wellington,43.25281814686537,-79.86008584499359,9,hub_1063,Sous Bas,Lounge,43.254119,-79.863658,0.3234433183340195
hub_1063,Main and Wellington,43.25281814686537,-79.86008584499359,9,hub_1063,TJ King Karaoke,Amusement Park,43.254514,-79.86289,0.2951817841882849
hub_1063,Main and Wellington,43.25281814686537,-79.86008584499359,9,hub_1063,Tailgate Charlie's,Sports Bar,43.253962,-79.867155,0.5864656227390272
hub_1063,Main and Wellington,43.25281814686537,-79.86008584499359,9,hub_1063,Tea Hut,Bar,43.254244,-79.865672,0.47938059869834787
hub_1063,Main and Wellington,43.25281814686537,-79.86008584499359,9,hub_1063,Undergound,Night Club,43.256647,-79.864966,0.5809131234858618
hub_1252,Cumberland at Blake ,43.24333095563425,-79.84050840139389,7,hub_1252,The Capitol Bar,Bar,43.251372,-79.835377,0.9859986680122602
hub_1252,Cumberland at Blake ,43.24333095563425,-79.84050840139389,7,hub_1252,Your Neighbourhood Bar and Grill,Pub,43.238206,-79.842244,0.586954975570697
hub_1253,Main at Eastbourne,43.24814116192469,-79.84201848506926,6,hub_1253,Carlton Tavern,Karaoke Bar,43.252253,-79.849388,0.7518591672942871
hub_1253,Main at Eastbourne,43.24814116192469,-79.84201848506926,6,hub_1253,E's Sports Bar,Sports Bar,43.252516,-79.851055,0.8787960302070079
hub_1253,Main at Eastbourne,43.24814116192469,-79.84201848506926,6,hub_1253,Ed's Sports Bar,Lounge,43.252523,-79.850963,0.8730344872012303
hub_1253,Main at Eastbourne,43.24814116192469,-79.84201848506926,6,hub_1253,Jax Bar & Grill,Dive Bar,43.249934,-79.848996,0.5992574878168258
hub_1253,Main at Eastbourne,43.24814116192469,-79.84201848506926,6,hub_1253,The Capitol Bar,Bar,43.251372,-79.835377,0.6468407637839741
hub_1287,Cannon at Ottawa,43.2475653052787,-79.8180502653122,5,hub_1287,Black Sheep Snack Bar,Cocktail Bar,43.247739,-79.817846,0.025431163626534012
hub_1287,Cannon at Ottawa,43.2475653052787,-79.8180502653122,5,hub_1287,Buddys Roadhouse,Bar,43.240965,-79.822316,0.8111860696175456
hub_1287,Cannon at Ottawa,43.2475653052787,-79.8180502653122,5,hub_1287,Eastown Bar & Grill,Bar,43.250725,-79.813897,0.4864096948058187
hub_1287,Cannon at Ottawa,43.2475653052787,-79.8180502653122,5,hub_1287,Faces Cafe & Bar,Bar,43.243401,-79.822633,0.5934609150706242
hub_1287,Cannon at Ottawa,43.2475653052787,-79.8180502653122,5,hub_1287,Hambrgr,Bar,43.248363,-79.817719,0.09266873021468748
hub_1287,Cannon at Ottawa,43.2475653052787,-79.8180502653122,5,hub_1287,Knockouts Grill,Bar,43.24623,-79.817824,0.14960589039159178
hub_1287,Cannon at Ottawa,43.2475653052787,-79.8180502653122,5,hub_1287,Merk Snack Bar,Bar,43.247797,-79.817809,0.03233575547290297
hub_1287,Cannon at Ottawa,43.2475653052787,-79.8180502653122,5,hub_1287,Osten Beerhall,Beer Bar,43.248569,-79.821601,0.3084838140876824
hub_1287,Cannon at Ottawa,43.2475653052787,-79.8180502653122,5,hub_1287,Stop Bar,Lounge,43.251749,-79.818056,0.4652058594970038
hub_1287,Cannon at Ottawa,43.2475653052787,-79.8180502653122,5,hub_1287,The End Zone Bar & Grill,Bar,43.241479,-79.814152,0.7468017130666132
hub_1397,King at Mary,43.25519606248058,-79.86437804996967,5,hub_1397,33 Bowen,Music Venue,43.253973,-79.866276,0.20523391493983195
hub_1397,King at Mary,43.25519606248058,-79.86437804996967,5,hub_1397,Black Forest Inn,Bar,43.254392,-79.861571,0.24427832491232165
hub_1397,King at Mary,43.25519606248058,-79.86437804996967,5,hub_1397,Embassy Club,Night Club,43.25578,-79.867509,0.261738181433999
hub_1397,King at Mary,43.25519606248058,-79.86437804996967,5,hub_1397,Mighty Mikes Pub & Billiards,Pool Hall,43.254333,-79.865966,0.1604612430411292
hub_1397,King at Mary,43.25519606248058,-79.86437804996967,5,hub_1397,Niza Ent,Night Club,43.253717,-79.862338,0.2331182656448065
hub_1397,King at Mary,43.25519606248058,-79.86437804996967,5,hub_1397,Sous Bas,Lounge,43.254119,-79.863658,0.1332059286834958
hub_1397,King at Mary,43.25519606248058,-79.86437804996967,5,hub_1397,TJ King Karaoke,Amusement Park,43.254514,-79.86289,0.14238847800216203
hub_1397,King at Mary,43.25519606248058,-79.86437804996967,5,hub_1397,Tailgate Charlie's,Sports Bar,43.253962,-79.867155,0.2634500268008338
hub_1397,King at Mary,43.25519606248058,-79.86437804996967,5,hub_1397,Tea Hut,Bar,43.254244,-79.865672,0.14895744850614165
hub_1397,King at Mary,43.25519606248058,-79.86437804996967,5,hub_1397,Undergound,Night Club,43.256647,-79.864966,0.16821622135958053
hub_1468,270 Sherman,43.26044140942891,-79.83437284827232,0,hub_1468,Bottoms Up,Bar,43.255851,-79.833118,0.5204471648041363
hub_1468,270 Sherman,43.26044140942891,-79.83437284827232,0,hub_1468,Galley Pump,Pub,43.262919,-79.84451,0.8658593916437305
hub_1468,270 Sherman,43.26044140942891,-79.83437284827232,0,hub_1468,Hamilton Specialty Bar,Lounge,43.261754,-79.835642,0.17850587080539582
hub_1468,270 Sherman,43.26044140942891,-79.83437284827232,0,hub_1468,Hamilton Specialty Bar,Lounge,43.263307,-79.833632,0.3242371855783215
hub_1468,270 Sherman,43.26044140942891,-79.83437284827232,0,hub_1468,MaiPai Tiki Bar,Tiki Bar,43.257164,-79.837883,0.4621778066223121
hub_1468,270 Sherman,43.26044140942891,-79.83437284827232,0,hub_1468,Prince Edward Tavern,Dive Bar,43.255851,-79.833118,0.5204471648041363
hub_1468,270 Sherman,43.26044140942891,-79.83437284827232,0,hub_1468,Sam's,Bar,43.256863,-79.838157,0.5022252678903509
hub_1468,270 Sherman,43.26044140942891,-79.83437284827232,0,hub_1468,Wingporium | Prince Eddy Sports Bar,Bar,43.255851,-79.833118,0.5204471648041363
hub_1468,270 Sherman,43.26044140942891,-79.83437284827232,0,hub_1468,Zacks,Bar,43.256738,-79.838321,0.5213449662435521
hub_2570,Athletic Centre Bike Racks,43.26471509784132,-79.91574570536613,15,hub_2570,Kookaburra Restaurant,Bar,43.258372,-79.910003,0.8448198033568584
hub_2570,Athletic Centre Bike Racks,43.26471509784132,-79.91574570536613,15,hub_2570,Phoenix Bar & Grill,Bar,43.262878,-79.921158,0.4835189624160827
hub_2570,Athletic Centre Bike Racks,43.26471509784132,-79.91574570536613,15,hub_2570,Snooty Fox,Pub,43.261816,-79.905256,0.9085040865697426
hub_2570,Athletic Centre Bike Racks,43.26471509784132,-79.91574570536613,15,hub_2570,TwelvEighty Bar & Grill,Lounge,43.258546,-79.919307,0.7441237431681429
hub_2570,Athletic Centre Bike Racks,43.26471509784132,-79.91574570536613,15,hub_2570,Williams Coffee Pub,Bar,43.257365,-79.917947,0.8365064092686197
hub_2868,King Street Dundas,43.26595632543361,-79.95375394821166,0,hub_2868,Bar Or M,Bar,43.264645,-79.956751,0.2831110742664731
hub_2868,King Street Dundas,43.26595632543361,-79.95375394821166,0,hub_2868,Collins Brewhouse,Pub,43.266392,-79.955149,0.12290707287470677
hub_2868,King Street Dundas,43.26595632543361,-79.95375394821166,0,hub_2868,Il Fiasco Cafe & Wine Bar,Whisky Bar,43.265793,-79.954212,0.04129619017856231
hub_2868,King Street Dundas,43.26595632543361,-79.95375394821166,0,hub_2868,Shawn & Ed Brewing Co,Arts and Entertainment,43.265744,-79.957728,0.3226442514310343
hub_2868,King Street Dundas,43.26595632543361,-79.95375394821166,0,hub_2868,Side Lounge,Bar,43.266479,-79.954746,0.09914666149763489
hub_2868,King Street Dundas,43.26595632543361,-79.95375394821166,0,hub_2868,Winchester Arms,Pub,43.266652,-79.958997,0.43151727988046584
hub_2869,Cootes Drive Dundas,43.26547419149645,-79.94765996932983,1,hub_2869,Bar Or M,Bar,43.264645,-79.956751,0.7418629307224568
hub_2869,Cootes Drive Dundas,43.26547419149645,-79.94765996932983,1,hub_2869,Collins Brewhouse,Pub,43.266392,-79.955149,0.6149146428582231
hub_2869,Cootes Drive Dundas,43.26547419149645,-79.94765996932983,1,hub_2869,Il Fiasco Cafe & Wine Bar,Whisky Bar,43.265793,-79.954212,0.5317033926091538
hub_2869,Cootes Drive Dundas,43.26547419149645,-79.94765996932983,1,hub_2869,Shawn & Ed Brewing Co,Arts and Entertainment,43.265744,-79.957728,0.8157643098298152
hub_2869,Cootes Drive Dundas,43.26547419149645,-79.94765996932983,1,hub_2869,Side Lounge,Bar,43.266479,-79.954746,0.5845328035485402
hub_2869,Cootes Drive Dundas,43.26547419149645,-79.94765996932983,1,hub_2869,Winchester Arms,Pub,43.266652,-79.958997,0.9272525503104019
hub_2915,Mars at Wentworth - ERI01,43.26534015820083,-79.84364993870258,2,hub_2915,Fragoso Seafood Place,Bar,43.261057,-79.852728,0.8758860095567861
hub_2915,Mars at Wentworth - ERI01,43.26534015820083,-79.84364993870258,2,hub_2915,Galley Pump,Pub,43.262919,-79.84451,0.2780819638452713
hub_2915,Mars at Wentworth - ERI01,43.26534015820083,-79.84364993870258,2,hub_2915,Hamilton Specialty Bar,Lounge,43.261754,-79.835642,0.7612295354113641
hub_2915,Mars at Wentworth - ERI01,43.26534015820083,-79.84364993870258,2,hub_2915,Hamilton Specialty Bar,Lounge,43.263307,-79.833632,0.8420886977756596
hub_2915,Mars at Wentworth - ERI01,43.26534015820083,-79.84364993870258,2,hub_2915,Mosaic - Hamilton,Beer Bar,43.259543,-79.846955,0.6979625068554208
hub_2915,Mars at Wentworth - ERI01,43.26534015820083,-79.84364993870258,2,hub_2915,Vavo John's Bar,Bar,43.260077,-79.850198,0.7897085853702028
hub_2916,Sherman at Barton - ERI02,43.25632467316046,-79.83628392219543,5,hub_2916,Bottoms Up,Bar,43.255851,-79.833118,0.2617402360272474
hub_2916,Sherman at Barton - ERI02,43.25632467316046,-79.83628392219543,5,hub_2916,Galley Pump,Pub,43.262919,-79.84451,0.9906557447816494
hub_2916,Sherman at Barton - ERI02,43.25632467316046,-79.83628392219543,5,hub_2916,Hamilton Specialty Bar,Lounge,43.261754,-79.835642,0.6059474155202612
hub_2916,Sherman at Barton - ERI02,43.25632467316046,-79.83628392219543,5,hub_2916,Hamilton Specialty Bar,Lounge,43.263307,-79.833632,0.8055510218611991
hub_2916,Sherman at Barton - ERI02,43.25632467316046,-79.83628392219543,5,hub_2916,MaiPai Tiki Bar,Tiki Bar,43.257164,-79.837883,0.15962364221842765
hub_2916,Sherman at Barton - ERI02,43.25632467316046,-79.83628392219543,5,hub_2916,Prince Edward Tavern,Dive Bar,43.255851,-79.833118,0.2617402360272474
hub_2916,Sherman at Barton - ERI02,43.25632467316046,-79.83628392219543,5,hub_2916,Sam's,Bar,43.256863,-79.838157,0.16307011707666363
hub_2916,Sherman at Barton - ERI02,43.25632467316046,-79.83628392219543,5,hub_2916,The Capitol Bar,Bar,43.251372,-79.835377,0.5555883933335162
hub_2916,Sherman at Barton - ERI02,43.25632467316046,-79.83628392219543,5,hub_2916,Wingporium | Prince Eddy Sports Bar,Bar,43.255851,-79.833118,0.2617402360272474
hub_2916,Sherman at Barton - ERI02,43.25632467316046,-79.83628392219543,5,hub_2916,Zacks,Bar,43.256738,-79.838321,0.17125015254936615
hub_2917,Barton at Lottridge - ERI03,43.2552894386678,-79.83144521713257,4,hub_2917,Barton Touchdown Pub,Night Club,43.25346,-79.824927,0.5657196879256743
hub_2917,Barton at Lottridge - ERI03,43.2552894386678,-79.83144521713257,4,hub_2917,Bottoms Up,Bar,43.255851,-79.833118,0.14916682110902146
hub_2917,Barton at Lottridge - ERI03,43.2552894386678,-79.83144521713257,4,hub_2917,Hamilton Specialty Bar,Lounge,43.261754,-79.835642,0.7951180219715822
hub_2917,Barton at Lottridge - ERI03,43.2552894386678,-79.83144521713257,4,hub_2917,MaiPai Tiki Bar,Tiki Bar,43.257164,-79.837883,0.5614747977718155
hub_2917,Barton at Lottridge - ERI03,43.2552894386678,-79.83144521713257,4,hub_2917,Prince Edward Tavern,Dive Bar,43.255851,-79.833118,0.14916682110902146
hub_2917,Barton at Lottridge - ERI03,43.2552894386678,-79.83144521713257,4,hub_2917,R Place Tavern,Bar,43.256968,-79.820741,0.8867260024352986
hub_2917,Barton at Lottridge - ERI03,43.2552894386678,-79.83144521713257,4,hub_2917,Sam's,Bar,43.256863,-79.838157,0.5710094926834749
hub_2917,Barton at Lottridge - ERI03,43.2552894386678,-79.83144521713257,4,hub_2917,The Capitol Bar,Bar,43.251372,-79.835377,0.5395734143581568
hub_2917,Barton at Lottridge - ERI03,43.2552894386678,-79.83144521713257,4,hub_2917,Wingporium | Prince Eddy Sports Bar,Bar,43.255851,-79.833118,0.14916682110902146
hub_2917,Barton at Lottridge - ERI03,43.2552894386678,-79.83144521713257,4,hub_2917,Zacks,Bar,43.256738,-79.838321,0.5796514773527655
hub_2918,Barton and Belview - ERI05,43.25291050099637,-79.82217215001583,2,hub_2918,Barton Touchdown Pub,Night Club,43.25346,-79.824927,0.2313223844649265
hub_2918,Barton and Belview - ERI05,43.25291050099637,-79.82217215001583,2,hub_2918,Black Sheep Snack Bar,Cocktail Bar,43.247739,-79.817846,0.6733803807194857
hub_2918,Barton and Belview - ERI05,43.25291050099637,-79.82217215001583,2,hub_2918,Bottoms Up,Bar,43.255851,-79.833118,0.9448321915876752
hub_2918,Barton and Belview - ERI05,43.25291050099637,-79.82217215001583,2,hub_2918,Eastown Bar & Grill,Bar,43.250725,-79.813897,0.7128934234113795
hub_2918,Barton and Belview - ERI05,43.25291050099637,-79.82217215001583,2,hub_2918,Hambrgr,Bar,43.248363,-79.817719,0.6211023603954383
hub_2918,Barton and Belview - ERI05,43.25291050099637,-79.82217215001583,2,hub_2918,Knockouts Grill,Bar,43.24623,-79.817824,0.8220873650613442
hub_2918,Barton and Belview - ERI05,43.25291050099637,-79.82217215001583,2,hub_2918,Merk Snack Bar,Bar,43.247797,-79.817809,0.6694581684289342
hub_2918,Barton and Belview - ERI05,43.25291050099637,-79.82217215001583,2,hub_2918,Osten Beerhall,Beer Bar,43.248569,-79.821601,0.48496402718866827
hub_2918,Barton and Belview - ERI05,43.25291050099637,-79.82217215001583,2,hub_2918,R Place Tavern,Bar,43.256968,-79.820741,0.4658222988116655
hub_2918,Barton and Belview - ERI05,43.25291050099637,-79.82217215001583,2,hub_2918,Stop Bar,Lounge,43.251749,-79.818056,0.357503459893838
hub_2919,Barton at Ottawa - ERI06,43.25147804372769,-79.81602117419243,2,hub_2919,Barton Touchdown Pub,Night Club,43.25346,-79.824927,0.7541819945577449
hub_2919,Barton at Ottawa - ERI06,43.25147804372769,-79.81602117419243,2,hub_2919,Black Sheep Snack Bar,Cocktail Bar,43.247739,-79.817846,0.4412507071878352
hub_2919,Barton at Ottawa - ERI06,43.25147804372769,-79.81602117419243,2,hub_2919,Eastown Bar & Grill,Bar,43.250725,-79.813897,0.19133203841911167
hub_2919,Barton at Ottawa - ERI06,43.25147804372769,-79.81602117419243,2,hub_2919,Hambrgr,Bar,43.248363,-79.817719,0.3726738615930395
hub_2919,Barton at Ottawa - ERI06,43.25147804372769,-79.81602117419243,2,hub_2919,Knockouts Grill,Bar,43.24623,-79.817824,0.6015463392421222
hub_2919,Barton at Ottawa - ERI06,43.25147804372769,-79.81602117419243,2,hub_2919,Merk Snack Bar,Bar,43.247797,-79.817809,0.43417068357205685
hub_2919,Barton at Ottawa - ERI06,43.25147804372769,-79.81602117419243,2,hub_2919,Osten Beerhall,Beer Bar,43.248569,-79.821601,0.5557533912405053
hub_2919,Barton at Ottawa - ERI06,43.25147804372769,-79.81602117419243,2,hub_2919,R Place Tavern,Bar,43.256968,-79.820741,0.7202508397403108
hub_2919,Barton at Ottawa - ERI06,43.25147804372769,-79.81602117419243,2,hub_2919,Stop Bar,Lounge,43.251749,-79.818056,0.16753002646320103
hub_2919,Barton at Ottawa - ERI06,43.25147804372769,-79.81602117419243,2,hub_2919,Sunset Grill,Bar,43.249832,-79.807304,0.7293460645279474
hub_2920,Ottawa at Dunsmure - ERI07,43.2444465978823,-79.81923043727875,0,hub_2920,Black Sheep Snack Bar,Cocktail Bar,43.247739,-79.817846,0.3828866202447512
hub_2920,Ottawa at Dunsmure - ERI07,43.2444465978823,-79.81923043727875,0,hub_2920,Buddys Roadhouse,Bar,43.240965,-79.822316,0.4608046365490781
hub_2920,Ottawa at Dunsmure - ERI07,43.2444465978823,-79.81923043727875,0,hub_2920,Eastown Bar & Grill,Bar,43.250725,-79.813897,0.8209664268661704
hub_2920,Ottawa at Dunsmure - ERI07,43.2444465978823,-79.81923043727875,0,hub_2920,Faces Cafe & Bar,Bar,43.243401,-79.822633,0.2991248858681097
hub_2920,Ottawa at Dunsmure - ERI07,43.2444465978823,-79.81923043727875,0,hub_2920,Hambrgr,Bar,43.248363,-79.817719,0.4523638791048935
hub_2920,Ottawa at Dunsmure - ERI07,43.2444465978823,-79.81923043727875,0,hub_2920,Knockouts Grill,Bar,43.24623,-79.817824,0.22869678944863006
hub_2920,Ottawa at Dunsmure - ERI07,43.2444465978823,-79.81923043727875,0,hub_2920,Merk Snack Bar,Bar,43.247797,-79.817809,0.38993203305853497
hub_2920,Ottawa at Dunsmure - ERI07,43.2444465978823,-79.81923043727875,0,hub_2920,Osten Beerhall,Beer Bar,43.248569,-79.821601,0.4969786073840025
hub_2920,Ottawa at Dunsmure - ERI07,43.2444465978823,-79.81923043727875,0,hub_2920,Stop Bar,Lounge,43.251749,-79.818056,0.8175426997060998
hub_2920,Ottawa at Dunsmure - ERI07,43.2444465978823,-79.81923043727875,0,hub_2920,The End Zone Bar & Grill,Bar,43.241479,-79.814152,0.5273535711817805
hub_2921,Maple at Rothsay - ERI08,43.24216273334376,-79.8250025510788,6,hub_2921,Black Sheep Snack Bar,Cocktail Bar,43.247739,-79.817846,0.8488092540624254
hub_2921,Maple at Rothsay - ERI08,43.24216273334376,-79.8250025510788,6,hub_2921,Buddys Roadhouse,Bar,43.240965,-79.822316,0.2551363864731895
hub_2921,Maple at Rothsay - ERI08,43.24216273334376,-79.8250025510788,6,hub_2921,Faces Cafe & Bar,Bar,43.243401,-79.822633,0.23621485906298953
hub_2921,Maple at Rothsay - ERI08,43.24216273334376,-79.8250025510788,6,hub_2921,Hambrgr,Bar,43.248363,-79.817719,0.9073946055777127
hub_2921,Maple at Rothsay - ERI08,43.24216273334376,-79.8250025510788,6,hub_2921,Knockouts Grill,Bar,43.24623,-79.817824,0.7366328628727935
hub_2921,Maple at Rothsay - ERI08,43.24216273334376,-79.8250025510788,6,hub_2921,Merk Snack Bar,Bar,43.247797,-79.817809,0.855569776070226
hub_2921,Maple at Rothsay - ERI08,43.24216273334376,-79.8250025510788,6,hub_2921,Osten Beerhall,Beer Bar,43.248569,-79.821601,0.7637694839879401
hub_2921,Maple at Rothsay - ERI08,43.24216273334376,-79.8250025510788,6,hub_2921,The End Zone Bar & Grill,Bar,43.241479,-79.814152,0.8821988130035732
hub_2922,King at Dunsmure - ERI09,43.24634382646498,-79.82685998082161,6,hub_2922,Barton Touchdown Pub,Night Club,43.25346,-79.824927,0.8066208350050998
hub_2922,King at Dunsmure - ERI09,43.24634382646498,-79.82685998082161,6,hub_2922,Black Sheep Snack Bar,Cocktail Bar,43.247739,-79.817846,0.7463886495611074
hub_2922,King at Dunsmure - ERI09,43.24634382646498,-79.82685998082161,6,hub_2922,Buddys Roadhouse,Bar,43.240965,-79.822316,0.7022749321087648
hub_2922,King at Dunsmure - ERI09,43.24634382646498,-79.82685998082161,6,hub_2922,Faces Cafe & Bar,Bar,43.243401,-79.822633,0.4736028769846781
hub_2922,King at Dunsmure - ERI09,43.24634382646498,-79.82685998082161,6,hub_2922,Hambrgr,Bar,43.248363,-79.817719,0.7736659165839055
hub_2922,King at Dunsmure - ERI09,43.24634382646498,-79.82685998082161,6,hub_2922,Knockouts Grill,Bar,43.24623,-79.817824,0.7319885849816862
hub_2922,King at Dunsmure - ERI09,43.24634382646498,-79.82685998082161,6,hub_2922,Merk Snack Bar,Bar,43.247797,-79.817809,0.7506816929591474
hub_2922,King at Dunsmure - ERI09,43.24634382646498,-79.82685998082161,6,hub_2922,Osten Beerhall,Beer Bar,43.248569,-79.821601,0.4925981490106769
hub_2922,King at Dunsmure - ERI09,43.24634382646498,-79.82685998082161,6,hub_2922,Stop Bar,Lounge,43.251749,-79.818056,0.9325679658093081
hub_2922,King at Dunsmure - ERI09,43.24634382646498,-79.82685998082161,6,hub_2922,The Capitol Bar,Bar,43.251372,-79.835377,0.8879456149673116
hub_2923,Dunsmure at Sherman - ERI10,43.24943274108067,-79.8388883471489,3,hub_2923,Bottoms Up,Bar,43.255851,-79.833118,0.8530711565335247
hub_2923,Dunsmure at Sherman - ERI10,43.24943274108067,-79.8388883471489,3,hub_2923,Carlton Tavern,Karaoke Bar,43.252253,-79.849388,0.9063489857757199
hub_2923,Dunsmure at Sherman - ERI10,43.24943274108067,-79.8388883471489,3,hub_2923,Jax Bar & Grill,Dive Bar,43.249934,-79.848996,0.8205300218165275
hub_2923,Dunsmure at Sherman - ERI10,43.24943274108067,-79.8388883471489,3,hub_2923,MaiPai Tiki Bar,Tiki Bar,43.257164,-79.837883,0.8635237883146917
hub_2923,Dunsmure at Sherman - ERI10,43.24943274108067,-79.8388883471489,3,hub_2923,Prince Edward Tavern,Dive Bar,43.255851,-79.833118,0.8530711565335247
hub_2923,Dunsmure at Sherman - ERI10,43.24943274108067,-79.8388883471489,3,hub_2923,Sam's,Bar,43.256863,-79.838157,0.8283274165131453
hub_2923,Dunsmure at Sherman - ERI10,43.24943274108067,-79.8388883471489,3,hub_2923,The Capitol Bar,Bar,43.251372,-79.835377,0.35689533751872915
hub_2923,Dunsmure at Sherman - ERI10,43.24943274108067,-79.8388883471489,3,hub_2923,Wingporium | Prince Eddy Sports Bar,Bar,43.255851,-79.833118,0.8530711565335247
hub_2923,Dunsmure at Sherman - ERI10,43.24943274108067,-79.8388883471489,3,hub_2923,Zacks,Bar,43.256738,-79.838321,0.8136061980978669
hub_2924,Gage at Cannon - ERI11,43.25112644429895,-79.82740849256516,3,hub_2924,Barton Touchdown Pub,Night Club,43.25346,-79.824927,0.3282059373012108
hub_2924,Gage at Cannon - ERI11,43.25112644429895,-79.82740849256516,3,hub_2924,Black Sheep Snack Bar,Cocktail Bar,43.247739,-79.817846,0.8612224179981952
hub_2924,Gage at Cannon - ERI11,43.25112644429895,-79.82740849256516,3,hub_2924,Bottoms Up,Bar,43.255851,-79.833118,0.6998546101346521
hub_2924,Gage at Cannon - ERI11,43.25112644429895,-79.82740849256516,3,hub_2924,Hambrgr,Bar,43.248363,-79.817719,0.8427811462712421
hub_2924,Gage at Cannon - ERI11,43.25112644429895,-79.82740849256516,3,hub_2924,Osten Beerhall,Beer Bar,43.248569,-79.821601,0.5496403226502482
hub_2924,Gage at Cannon - ERI11,43.25112644429895,-79.82740849256516,3,hub_2924,Prince Edward Tavern,Dive Bar,43.255851,-79.833118,0.6998546101346521
hub_2924,Gage at Cannon - ERI11,43.25112644429895,-79.82740849256516,3,hub_2924,R Place Tavern,Bar,43.256968,-79.820741,0.844681466511089
hub_2924,Gage at Cannon - ERI11,43.25112644429895,-79.82740849256516,3,hub_2924,Stop Bar,Lounge,43.251749,-79.818056,0.760608040179406
hub_2924,Gage at Cannon - ERI11,43.25112644429895,-79.82740849256516,3,hub_2924,The Capitol Bar,Bar,43.251372,-79.835377,0.6459427472106999
hub_2924,Gage at Cannon - ERI11,43.25112644429895,-79.82740849256516,3,hub_2924,Wingporium | Prince Eddy Sports Bar,Bar,43.255851,-79.833118,0.6998546101346521
hub_2925,Belview at Cannon - ERI12,43.24892849906615,-79.82342541217804,3,hub_2925,Barton Touchdown Pub,Night Club,43.25346,-79.824927,0.5183480270847567
hub_2925,Belview at Cannon - ERI12,43.24892849906615,-79.82342541217804,3,hub_2925,Black Sheep Snack Bar,Cocktail Bar,43.247739,-79.817846,0.47085435429758493
hub_2925,Belview at Cannon - ERI12,43.24892849906615,-79.82342541217804,3,hub_2925,Buddys Roadhouse,Bar,43.240965,-79.822316,0.8900484845544064
hub_2925,Belview at Cannon - ERI12,43.24892849906615,-79.82342541217804,3,hub_2925,Eastown Bar & Grill,Bar,43.250725,-79.813897,0.7971546130015331
hub_2925,Belview at Cannon - ERI12,43.24892849906615,-79.82342541217804,3,hub_2925,Faces Cafe & Bar,Bar,43.243401,-79.822633,0.6179718759283853
hub_2925,Belview at Cannon - ERI12,43.24892849906615,-79.82342541217804,3,hub_2925,Hambrgr,Bar,43.248363,-79.817719,0.46643711732009213
hub_2925,Belview at Cannon - ERI12,43.24892849906615,-79.82342541217804,3,hub_2925,Knockouts Grill,Bar,43.24623,-79.817824,0.5439336387801874
hub_2925,Belview at Cannon - ERI12,43.24892849906615,-79.82342541217804,3,hub_2925,Merk Snack Bar,Bar,43.247797,-79.817809,0.47197096131528565
hub_2925,Belview at Cannon - ERI12,43.24892849906615,-79.82342541217804,3,hub_2925,Osten Beerhall,Beer Bar,43.248569,-79.821601,0.15307593932448704
hub_2925,Belview at Cannon - ERI12,43.24892849906615,-79.82342541217804,3,hub_2925,Stop Bar,Lounge,43.251749,-79.818056,0.5361669189027841
hub_2926,Westinghouse at Barton - ERI13,43.25831920066756,-79.84240606427193,4,hub_2926,Bottoms Up,Bar,43.255851,-79.833118,0.8006707062712011
hub_2926,Westinghouse at Barton - ERI13,43.25831920066756,-79.84240606427193,4,hub_2926,Galley Pump,Pub,43.262919,-79.84451,0.5391030597787831
hub_2926,Westinghouse at Barton - ERI13,43.25831920066756,-79.84240606427193,4,hub_2926,Hamilton Specialty Bar,Lounge,43.261754,-79.835642,0.6677502368196524
hub_2926,Westinghouse at Barton - ERI13,43.25831920066756,-79.84240606427193,4,hub_2926,MaiPai Tiki Bar,Tiki Bar,43.257164,-79.837883,0.38815238427854776
hub_2926,Westinghouse at Barton - ERI13,43.25831920066756,-79.84240606427193,4,hub_2926,Mosaic - Hamilton,Beer Bar,43.259543,-79.846955,0.39270085054024934
hub_2926,Westinghouse at Barton - ERI13,43.25831920066756,-79.84240606427193,4,hub_2926,Prince Edward Tavern,Dive Bar,43.255851,-79.833118,0.8006707062712011
hub_2926,Westinghouse at Barton - ERI13,43.25831920066756,-79.84240606427193,4,hub_2926,Sam's,Bar,43.256863,-79.838157,0.38028840878794046
hub_2926,Westinghouse at Barton - ERI13,43.25831920066756,-79.84240606427193,4,hub_2926,Vavo John's Bar,Bar,43.260077,-79.850198,0.6605626253109251
hub_2926,Westinghouse at Barton - ERI13,43.25831920066756,-79.84240606427193,4,hub_2926,Wingporium | Prince Eddy Sports Bar,Bar,43.255851,-79.833118,0.8006707062712011
hub_2926,Westinghouse at Barton - ERI13,43.25831920066756,-79.84240606427193,4,hub_2926,Zacks,Bar,43.256738,-79.838321,0.3746338984247341
hub_3885,George Street,43.25851444036409,-79.87894982099533,0,hub_3885,Absinthe Lounge,Bar,43.258547,-79.87878,0.014220663421696542
hub_3885,George Street,43.25851444036409,-79.87894982099533,0,hub_3885,Arcade,Arcade,43.258171,-79.878578,0.048631304658279854
hub_3885,George Street,43.25851444036409,-79.87894982099533,0,hub_3885,Bourbon & Brass Speakeasy,Music Venue,43.258051,-79.877955,0.09563264660451759
hub_3885,George Street,43.25851444036409,-79.87894982099533,0,hub_3885,Elixir Lounge & Nightclub,Night Club,43.258514,-79.877755,0.09675641815096402
hub_3885,George Street,43.25851444036409,-79.87894982099533,0,hub_3885,Gown & Gavel,Bar,43.258338,-79.877864,0.0900919167860419
hub_3885,George Street,43.25851444036409,-79.87894982099533,0,hub_3885,Moodys,Bar,43.258164,-79.878669,0.045117519958687353
hub_3885,George Street,43.25851444036409,-79.87894982099533,0,hub_3885,Side Bar,Lounge,43.258331,-79.877956,0.08302425211472325
hub_3885,George Street,43.25851444036409,-79.87894982099533,0,hub_3885,Ten Decades,Bar,43.258051,-79.877955,0.09563264660451759
hub_3885,George Street,43.25851444036409,-79.87894982099533,0,hub_3885,Vip Saturdays,Night Club,43.258051,-79.877955,0.09563264660451759
hub_3885,George Street,43.25851444036409,-79.87894982099533,0,hub_3885,Viva Night Club,Night Club,43.25826,-79.878871,0.029003551749242778
hub_4093,James at Vine,43.25971184443275,-79.86767515540123,2,hub_4093,B Me,Bar,43.259542,-79.868052,0.0358875572318407
hub_4093,James at Vine,43.25971184443275,-79.86767515540123,2,hub_4093,Club Absinthe,Night Club,43.256943,-79.867659,0.3078842331528768
hub_4093,James at Vine,43.25971184443275,-79.86767515540123,2,hub_4093,Happy Hourz Pub,Pub,43.259965,-79.869097,0.11852938055495137
hub_4093,James at Vine,43.25971184443275,-79.86767515540123,2,hub_4093,K Point Karaoke & Bar,Arts and Entertainment,43.258247,-79.868158,0.16751059326649506
hub_4093,James at Vine,43.25971184443275,-79.86767515540123,2,hub_4093,L'étranger on James,Arts and Entertainment,43.259535,-79.868144,0.042756499737080886
hub_4093,James at Vine,43.25971184443275,-79.86767515540123,2,hub_4093,Merit Brewing,Bar,43.25949,-79.867997,0.03588538249051517
hub_4093,James at Vine,43.25971184443275,-79.86767515540123,2,hub_4093,Saint James Espresso Bar & Eatery,Bar,43.260862,-79.866884,0.14304072545737676
hub_4093,James at Vine,43.25971184443275,-79.86767515540123,2,hub_4093,The Brain,Bar,43.261915,-79.867016,0.2507271250309162
hub_4093,James at Vine,43.25971184443275,-79.86767515540123,2,hub_4093,The French,Wine Bar,43.257347,-79.867496,0.2633586163859355
hub_4093,James at Vine,43.25971184443275,-79.86767515540123,2,hub_4093,Undefined,Bar,43.257392,-79.867642,0.25796890409345746
hub_5333,Main at Dalewood,43.25802547698811,-79.91383865476678,8,hub_5333,Emerson 109,Bar,43.25446,-79.92079,0.6885376314086846
hub_5333,Main at Dalewood,43.25802547698811,-79.91383865476678,8,hub_5333,Kookaburra Restaurant,Bar,43.258372,-79.910003,0.3129931025641596
hub_5333,Main at Dalewood,43.25802547698811,-79.91383865476678,8,hub_5333,Phoenix Bar & Grill,Bar,43.262878,-79.921158,0.8015211024090048
hub_5333,Main at Dalewood,43.25802547698811,-79.91383865476678,8,hub_5333,Snooty Fox,Pub,43.261816,-79.905256,0.8128249714624317
hub_5333,Main at Dalewood,43.25802547698811,-79.91383865476678,8,hub_5333,TwelvEighty Bar & Grill,Lounge,43.258546,-79.919307,0.44659388805625727
hub_5333,Main at Dalewood,43.25802547698811,-79.91383865476678,8,hub_5333,Williams Coffee Pub,Bar,43.257365,-79.917947,0.3407071585403425
hub_5402,Pearl Street Bridge,43.25650634283747,-79.88345324993132,5,hub_5402,Absinthe Lounge,Bar,43.258547,-79.87878,0.441258655595914
hub_5402,Pearl Street Bridge,43.25650634283747,-79.88345324993132,5,hub_5402,Arcade,Arcade,43.258171,-79.878578,0.43604262841308383
hub_5402,Pearl Street Bridge,43.25650634283747,-79.88345324993132,5,hub_5402,Bourbon & Brass Speakeasy,Music Venue,43.258051,-79.877955,0.4772358817280462
hub_5402,Pearl Street Bridge,43.25650634283747,-79.88345324993132,5,hub_5402,Doors Pub & Pizzeria,Pub,43.257353,-79.8783,0.42780746191565644
hub_5402,Pearl Street Bridge,43.25650634283747,-79.88345324993132,5,hub_5402,Moodys,Bar,43.258164,-79.878669,0.4290467093635585
hub_5402,Pearl Street Bridge,43.25650634283747,-79.88345324993132,5,hub_5402,Side Bar,Lounge,43.258331,-79.877956,0.48922965744544944
hub_5402,Pearl Street Bridge,43.25650634283747,-79.88345324993132,5,hub_5402,Ten Decades,Bar,43.258051,-79.877955,0.4772358817280462
hub_5402,Pearl Street Bridge,43.25650634283747,-79.88345324993132,5,hub_5402,Vip Saturdays,Night Club,43.258051,-79.877955,0.4772358817280462
hub_5402,Pearl Street Bridge,43.25650634283747,-79.88345324993132,5,hub_5402,Viva Night Club,Night Club,43.25826,-79.878871,0.4191921687743247
hub_5402,Pearl Street Bridge,43.25650634283747,-79.88345324993132,5,hub_5402,West Town Bar & Grill,Bar,43.254502,-79.886256,0.3181053753049838
hub_5426,Hill Street Park,43.25672417073905,-79.88822355870525,3,hub_5426,Absinthe Lounge,Bar,43.258547,-79.87878,0.7911534509019756
hub_5426,Hill Street Park,43.25672417073905,-79.88822355870525,3,hub_5426,Arcade,Arcade,43.258171,-79.878578,0.7975050663227379
hub_5426,Hill Street Park,43.25672417073905,-79.88822355870525,3,hub_5426,Doors Pub & Pizzeria,Pub,43.257353,-79.8783,0.8066638143509408
hub_5426,Hill Street Park,43.25672417073905,-79.88822355870525,3,hub_5426,Mark's Chinese Food & Tavern,Bar,43.260901,-79.883074,0.6241815081665509
hub_5426,Hill Street Park,43.25672417073905,-79.88822355870525,3,hub_5426,Moodys,Bar,43.258164,-79.878669,0.7901306318444045
hub_5426,Hill Street Park,43.25672417073905,-79.88822355870525,3,hub_5426,Ray's Place,Pub,43.252556,-79.891906,0.5511350331676895
hub_5426,Hill Street Park,43.25672417073905,-79.88822355870525,3,hub_5426,Side Bar,Lounge,43.258331,-79.877956,0.850458817250086
hub_5426,Hill Street Park,43.25672417073905,-79.88822355870525,3,hub_5426,Vip Saturdays,Night Club,43.258051,-79.877955,0.8445482266956413
hub_5426,Hill Street Park,43.25672417073905,-79.88822355870525,3,hub_5426,Viva Night Club,Night Club,43.25826,-79.878871,0.7763962368809392
hub_5426,Hill Street Park,43.25672417073905,-79.88822355870525,3,hub_5426,West Town Bar & Grill,Bar,43.254502,-79.886256,0.29401494800103806
hub_5702,Locke at Herkimer,43.25249971692893,-79.88658607006073,6,hub_5702,Absinthe Lounge,Bar,43.258547,-79.87878,0.9229254081719915
hub_5702,Locke at Herkimer,43.25249971692893,-79.88658607006073,6,hub_5702,Arcade,Arcade,43.258171,-79.878578,0.9045799928000882
hub_5702,Locke at Herkimer,43.25249971692893,-79.88658607006073,6,hub_5702,Bourbon & Brass Speakeasy,Music Venue,43.258051,-79.877955,0.9325237697584082
hub_5702,Locke at Herkimer,43.25249971692893,-79.88658607006073,6,hub_5702,Doors Pub & Pizzeria,Pub,43.257353,-79.8783,0.8611234576085247
hub_5702,Locke at Herkimer,43.25249971692893,-79.88658607006073,6,hub_5702,Moodys,Bar,43.258164,-79.878669,0.8987655623166707
hub_5702,Locke at Herkimer,43.25249971692893,-79.88658607006073,6,hub_5702,Ray's Place,Pub,43.252556,-79.891906,0.4308948470535024
hub_5702,Locke at Herkimer,43.25249971692893,-79.88658607006073,6,hub_5702,Ten Decades,Bar,43.258051,-79.877955,0.9325237697584082
hub_5702,Locke at Herkimer,43.25249971692893,-79.88658607006073,6,hub_5702,Vip Saturdays,Night Club,43.258051,-79.877955,0.9325237697584082
hub_5702,Locke at Herkimer,43.25249971692893,-79.88658607006073,6,hub_5702,Viva Night Club,Night Club,43.25826,-79.878871,0.8947793658905506
hub_5702,Locke at Herkimer,43.25249971692893,-79.88658607006073,6,hub_5702,West Town Bar & Grill,Bar,43.254502,-79.886256,0.22424268949398005
hub_5790,Beasley Park,43.25891916811838,-79.86106485128403,4,hub_5790,Black Forest Inn,Bar,43.254392,-79.861571,0.5050641341453432
hub_5790,Beasley Park,43.25891916811838,-79.86106485128403,4,hub_5790,Club Absinthe,Night Club,43.256943,-79.867659,0.5774423503724608
hub_5790,Beasley Park,43.25891916811838,-79.86106485128403,4,hub_5790,Hamilton Strip,Night Club,43.263017,-79.862148,0.4640229564108607
hub_5790,Beasley Park,43.25891916811838,-79.86106485128403,4,hub_5790,Merit Brewing,Bar,43.25949,-79.867997,0.5649350193040649
hub_5790,Beasley Park,43.25891916811838,-79.86106485128403,4,hub_5790,Nobody's Perfect Bar and Grill,Karaoke Bar,43.263367,-79.863413,0.5298685499834634
hub_5790,Beasley Park,43.25891916811838,-79.86106485128403,4,hub_5790,Saint James Espresso Bar & Eatery,Bar,43.260862,-79.866884,0.5183834830629201
hub_5790,Beasley Park,43.25891916811838,-79.86106485128403,4,hub_5790,TJ King Karaoke,Amusement Park,43.254514,-79.86289,0.5116462915945639
hub_5790,Beasley Park,43.25891916811838,-79.86106485128403,4,hub_5790,The French,Wine Bar,43.257347,-79.867496,0.549354292562628
hub_5790,Beasley Park,43.25891916811838,-79.86106485128403,4,hub_5790,Undefined,Bar,43.257392,-79.867642,0.5590350214688212
hub_5790,Beasley Park,43.25891916811838,-79.86106485128403,4,hub_5790,Undergound,Night Club,43.256647,-79.864966,0.40452208116209193
hub_5827,John near King,43.25652795268133,-79.86623145639896,7,hub_5827,33 Bowen,Music Venue,43.253973,-79.866276,0.28412067704338867
hub_5827,John near King,43.25652795268133,-79.86623145639896,7,hub_5827,Club Absinthe,Night Club,43.256943,-79.867659,0.12447726201767824
hub_5827,John near King,43.25652795268133,-79.86623145639896,7,hub_5827,Hamilton Club,Night Club,43.255183,-79.869448,0.30036479942768946
hub_5827,John near King,43.25652795268133,-79.86623145639896,7,hub_5827,K Point Karaoke & Bar,Arts and Entertainment,43.258247,-79.868158,0.24673560689448606
hub_5827,John near King,43.25652795268133,-79.86623145639896,7,hub_5827,Mighty Mikes Pub & Billiards,Pool Hall,43.254333,-79.865966,0.24501254213433227
hub_5827,John near King,43.25652795268133,-79.86623145639896,7,hub_5827,Tea Hut,Bar,43.254244,-79.865672,0.25797366887638684
hub_5827,John near King,43.25652795268133,-79.86623145639896,7,hub_5827,The French,Wine Bar,43.257347,-79.867496,0.1370448023491646
hub_5827,John near King,43.25652795268133,-79.86623145639896,7,hub_5827,Undefined,Bar,43.257392,-79.867642,0.14926175319269241
hub_5827,John near King,43.25652795268133,-79.86623145639896,7,hub_5827,Undergound,Night Club,43.256647,-79.864966,0.10333110613824982
hub_5827,John near King,43.25652795268133,-79.86623145639896,7,hub_5827,Zen Lounge,Lounge,43.253962,-79.867155,0.29496090249041335
hub_5836,King at Barnesdale,43.25124627968789,-79.83547054231167,2,hub_5836,Barton Touchdown Pub,Night Club,43.25346,-79.824927,0.8886722768174699
hub_5836,King at Barnesdale,43.25124627968789,-79.83547054231167,2,hub_5836,Bottoms Up,Bar,43.255851,-79.833118,0.5463199220711327
hub_5836,King at Barnesdale,43.25124627968789,-79.83547054231167,2,hub_5836,MaiPai Tiki Bar,Tiki Bar,43.257164,-79.837883,0.6864124441360443
hub_5836,King at Barnesdale,43.25124627968789,-79.83547054231167,2,hub_5836,Prince Edward Tavern,Dive Bar,43.255851,-79.833118,0.5463199220711327
hub_5836,King at Barnesdale,43.25124627968789,-79.83547054231167,2,hub_5836,Sam's,Bar,43.256863,-79.838157,0.6613608401378254
hub_5836,King at Barnesdale,43.25124627968789,-79.83547054231167,2,hub_5836,The Capitol Bar,Bar,43.251372,-79.835377,0.01590031919627729
hub_5836,King at Barnesdale,43.25124627968789,-79.83547054231167,2,hub_5836,Wingporium | Prince Eddy Sports Bar,Bar,43.255851,-79.833118,0.5463199220711327
hub_5836,King at Barnesdale,43.25124627968789,-79.83547054231167,2,hub_5836,Zacks,Bar,43.256738,-79.838321,0.6528287613343414
hub_5837,King at Sherman,43.2513467527978,-79.83823858201504,2,hub_5837,Bottoms Up,Bar,43.255851,-79.833118,0.6502492242904977
hub_5837,King at Sherman,43.2513467527978,-79.83823858201504,2,hub_5837,Carlton Tavern,Karaoke Bar,43.252253,-79.849388,0.9085830211218363
hub_5837,King at Sherman,43.2513467527978,-79.83823858201504,2,hub_5837,Jax Bar & Grill,Dive Bar,43.249934,-79.848996,0.8852955091072867
hub_5837,King at Sherman,43.2513467527978,-79.83823858201504,2,hub_5837,MaiPai Tiki Bar,Tiki Bar,43.257164,-79.837883,0.6474890638927777
hub_5837,King at Sherman,43.2513467527978,-79.83823858201504,2,hub_5837,Prince Edward Tavern,Dive Bar,43.255851,-79.833118,0.6502492242904977
hub_5837,King at Sherman,43.2513467527978,-79.83823858201504,2,hub_5837,Sam's,Bar,43.256863,-79.838157,0.6134142853190273
hub_5837,King at Sherman,43.2513467527978,-79.83823858201504,2,hub_5837,The Capitol Bar,Bar,43.251372,-79.835377,0.2317746669028704
hub_5837,King at Sherman,43.2513467527978,-79.83823858201504,2,hub_5837,Wingporium | Prince Eddy Sports Bar,Bar,43.255851,-79.833118,0.6502492242904977
hub_5837,King at Sherman,43.2513467527978,-79.83823858201504,2,hub_5837,Zacks,Bar,43.256738,-79.838321,0.5995164944466395
hub_5838,King at Sanford,43.251884127702,-79.84635829925537,10,hub_5838,Carlton Tavern,Karaoke Bar,43.252253,-79.849388,0.24877523945042793
hub_5838,King at Sanford,43.251884127702,-79.84635829925537,10,hub_5838,E's Sports Bar,Sports Bar,43.252516,-79.851055,0.38681214834937044
hub_5838,King at Sanford,43.251884127702,-79.84635829925537,10,hub_5838,Ed's Sports Bar,Lounge,43.252523,-79.850963,0.3796324527051266
hub_5838,King at Sanford,43.251884127702,-79.84635829925537,10,hub_5838,Jax Bar & Grill,Dive Bar,43.249934,-79.848996,0.30439785372562245
hub_5838,King at Sanford,43.251884127702,-79.84635829925537,10,hub_5838,MaiPai Tiki Bar,Tiki Bar,43.257164,-79.837883,0.9032103078898145
hub_5838,King at Sanford,43.251884127702,-79.84635829925537,10,hub_5838,Mosaic - Hamilton,Beer Bar,43.259543,-79.846955,0.8529976088529339
hub_5838,King at Sanford,43.251884127702,-79.84635829925537,10,hub_5838,Rebel's Rock Irish Pub,Bar,43.252669,-79.852703,0.5212042395912375
hub_5838,King at Sanford,43.251884127702,-79.84635829925537,10,hub_5838,Sam's,Bar,43.256863,-79.838157,0.8646633725797659
hub_5838,King at Sanford,43.251884127702,-79.84635829925537,10,hub_5838,The Capitol Bar,Bar,43.251372,-79.835377,0.891185614269031
hub_5838,King at Sanford,43.251884127702,-79.84635829925537,10,hub_5838,Zacks,Bar,43.256738,-79.838321,0.8455650505331223
hub_5845,Jackson Square,43.25693469264953,-79.86957684159279,6,hub_5845,Anchor Bar,Lounge,43.257946,-79.87279,0.2834651197047519
hub_5845,Jackson Square,43.25693469264953,-79.86957684159279,6,hub_5845,B Me,Bar,43.259542,-79.868052,0.3151206566322043
hub_5845,Jackson Square,43.25693469264953,-79.86957684159279,6,hub_5845,Club Absinthe,Night Club,43.256943,-79.867659,0.15531325883139074
hub_5845,Jackson Square,43.25693469264953,-79.86957684159279,6,hub_5845,Hamilton Club,Night Club,43.255183,-79.869448,0.19505860089259194
hub_5845,Jackson Square,43.25693469264953,-79.86957684159279,6,hub_5845,K Point Karaoke & Bar,Arts and Entertainment,43.258247,-79.868158,0.18572844559303164
hub_5845,Jackson Square,43.25693469264953,-79.86957684159279,6,hub_5845,LOFT Lounge,Night Club,43.257617,-79.871251,0.15536063725219343
hub_5845,Jackson Square,43.25693469264953,-79.86957684159279,6,hub_5845,Merit Brewing,Bar,43.25949,-79.867997,0.3116112350465826
hub_5845,Jackson Square,43.25693469264953,-79.86957684159279,6,hub_5845,The French,Wine Bar,43.257347,-79.867496,0.1746353995744432
hub_5845,Jackson Square,43.25693469264953,-79.86957684159279,6,hub_5845,Undefined,Bar,43.257392,-79.867642,0.16473144121840322
hub_5845,Jackson Square,43.25693469264953,-79.86957684159279,6,hub_5845,Yuk Yuk's Comedy Club,Comedy Club,43.258263,-79.873029,0.3161788487824483
hub_5846,Cannon at Steven,43.25646071175471,-79.84998129308224,7,hub_5846,Carlton Tavern,Karaoke Bar,43.252253,-79.849388,0.47033685170805
hub_5846,Cannon at Steven,43.25646071175471,-79.84998129308224,7,hub_5846,E's Sports Bar,Sports Bar,43.252516,-79.851055,0.44716779155904945
hub_5846,Cannon at Steven,43.25646071175471,-79.84998129308224,7,hub_5846,Ed's Sports Bar,Lounge,43.252523,-79.850963,0.44501302132362064
hub_5846,Cannon at Steven,43.25646071175471,-79.84998129308224,7,hub_5846,Fragoso Seafood Place,Bar,43.261057,-79.852728,0.5573872510038897
hub_5846,Cannon at Steven,43.25646071175471,-79.84998129308224,7,hub_5846,Galley Pump,Pub,43.262919,-79.84451,0.8438054189623997
hub_5846,Cannon at Steven,43.25646071175471,-79.84998129308224,7,hub_5846,Jax Bar & Grill,Dive Bar,43.249934,-79.848996,0.7301108885285568
hub_5846,Cannon at Steven,43.25646071175471,-79.84998129308224,7,hub_5846,Mosaic - Hamilton,Beer Bar,43.259543,-79.846955,0.42133933774843235
hub_5846,Cannon at Steven,43.25646071175471,-79.84998129308224,7,hub_5846,Rebel's Rock Irish Pub,Bar,43.252669,-79.852703,0.47575899694391927
hub_5846,Cannon at Steven,43.25646071175471,-79.84998129308224,7,hub_5846,Vavo John's Bar,Bar,43.260077,-79.850198,0.4024956587718574
hub_5846,Cannon at Steven,43.25646071175471,-79.84998129308224,7,hub_5846,Zacks,Bar,43.256738,-79.838321,0.9447815449289952
hub_5903,Pier 8,43.27528883070137,-79.85690742731094,4,hub_5903,Route 66 Diner,Bar,43.272393,-79.862434,0.5512505235995833
hub_6148,King William at James,43.2573917915248,-79.86790180206299,0,hub_6148,B Me,Bar,43.259542,-79.868052,0.23940144992203727
hub_6148,King William at James,43.2573917915248,-79.86790180206299,0,hub_6148,Club Absinthe,Night Club,43.256943,-79.867659,0.05363727751372898
hub_6148,King William at James,43.2573917915248,-79.86790180206299,0,hub_6148,Hamilton Club,Night Club,43.255183,-79.869448,0.2756835388952114
hub_6148,King William at James,43.2573917915248,-79.86790180206299,0,hub_6148,K Point Karaoke & Bar,Arts and Entertainment,43.258247,-79.868158,0.09733176038737534
hub_6148,King William at James,43.2573917915248,-79.86790180206299,0,hub_6148,L'étranger on James,Arts and Entertainment,43.259535,-79.868144,0.23911962603416156
hub_6148,King William at James,43.2573917915248,-79.86790180206299,0,hub_6148,LOFT Lounge,Night Club,43.257617,-79.871251,0.2723756082858669
hub_6148,King William at James,43.2573917915248,-79.86790180206299,0,hub_6148,Merit Brewing,Bar,43.25949,-79.867997,0.23343746661851106
hub_6148,King William at James,43.2573917915248,-79.86790180206299,0,hub_6148,The French,Wine Bar,43.257347,-79.867496,0.03323768513908675
hub_6148,King William at James,43.2573917915248,-79.86790180206299,0,hub_6148,Undefined,Bar,43.257392,-79.867642,0.021039128470164606
hub_6148,King William at James,43.2573917915248,-79.86790180206299,0,hub_6148,Undergound,Night Club,43.256647,-79.864966,0.2517580340455741
